{"type":"FeatureCollection","street":"Yonge St","kind":"divide","features":[{"type":"Feature","properties":{"role":"divide","street":"Yonge St"},"geometry":{"type":"LineString","coordinates":[[-79.37466,43.64194],[-79.37521,43.64276],[-79.37547,43.64333],[-79.37577,43.64406],[-79.37697,43.64688],[-79.37734,43.64783],[-79.37763,43.64851],[-79.37789,43.64916],[-79.37843,43.65042],[-79.37896,43.6517],[-79.37926,43.65244],[-79.37997,43.65406],[-79.38065,43.65571],[-79.38093,43.65633],[-79.38123,43.65704],[-79.38136,43.6574],[-79.38191,43.65868],[-79.3821,43.65909],[-79.38311,43.66137],[-79.38336,43.66203],[-79.38378,43.66303],[-79.38456,43.66493],[-79.38524,43.66657],[-79.38584,43.66799],[-79.38641,43.66939],[-79.38679,43.67023],[-79.38719,43.67128],[-79.38746,43.67193],[-79.38787,43.67287],[-79.38866,43.67488],[-79.38899,43.67559],[-79.38956,43.67705],[-79.38988,43.67784],[-79.39004,43.6782],[-79.39073,43.6799],[-79.39119,43.68108],[-79.39157,43.68196],[-79.39203,43.6831],[-79.39238,43.68392],[-79.39282,43.68503],[-79.39319,43.68588],[-79.3933,43.68622],[-79.39368,43.68712],[-79.39408,43.6881],[-79.39454,43.68912],[-79.39493,43.69018],[-79.39503,43.69077],[-79.39523,43.69172],[-79.39606,43.69557],[-79.39617,43.69612],[-79.39647,43.69737],[-79.39664,43.6983],[-79.39681,43.69932],[-79.39701,43.70029],[-79.39711,43.70086],[-79.39718,43.70113],[-79.39747,43.70252],[-79.39762,43.70328],[-79.39781,43.70415],[-79.39832,43.70675],[-79.3986,43.708],[-79.39864,43.70822],[-79.39897,43.70959],[-79.39928,43.71109],[-79.39946,43.71184],[-79.39953,43.7123],[-79.40009,43.71495],[-79.40041,43.71639],[-79.40045,43.71661],[-79.40083,43.71835],[-79.40091,43.71876],[-79.4011,43.71956],[-79.4014,43.72096],[-79.4016,43.72197],[-79.4018,43.7231],[-79.40212,43.72458],[-79.4022,43.7251],[-79.40236,43.72568],[-79.40327,43.72918],[-79.40347,43.72993],[-79.40425,43.73292],[-79.40448,43.73393],[-79.40484,43.73557],[-79.40514,43.73698],[-79.40591,43.74038],[-79.40625,43.74186],[-79.40654,43.74333],[-79.40673,43.74415],[-79.40745,43.7473],[-79.40785,43.74893],[-79.40813,43.75022],[-79.40808,43.75177],[-79.40816,43.75268],[-79.40844,43.75381],[-79.40859,43.75431],[-79.40947,43.75605],[-79.40979,43.757],[-79.41012,43.75823],[-79.41031,43.75903],[-79.41058,43.76004],[-79.41094,43.76151],[-79.41116,43.76236],[-79.41138,43.76328],[-79.41157,43.764],[-79.41176,43.76481],[-79.41199,43.76566],[-79.41244,43.76748],[-79.4129,43.76927],[-79.41332,43.77099],[-79.41358,43.77199],[-79.41438,43.77516],[-79.41508,43.7779],[-79.41528,43.7787],[-79.41558,43.77977],[-79.416,43.78164],[-79.41616,43.78226],[-79.41672,43.7845],[-79.41703,43.78579],[-79.41735,43.78707],[-79.41813,43.79025],[-79.41858,43.79206],[-79.41879,43.79296],[-79.41901,43.79381],[-79.41963,43.79632],[-79.41985,43.79716],[-79.42006,43.79803]]}},{"type":"Feature","properties":{"role":"e","street":"Adelaide St E"},"geometry":{"type":"LineString","coordinates":[[-79.37843,43.65042],[-79.37725,43.65067],[-79.37647,43.65085],[-79.37493,43.65118],[-79.37288,43.6516],[-79.37235,43.65154],[-79.37169,43.65146],[-79.36986,43.65189],[-79.3686,43.65216],[-79.36739,43.65241],[-79.36476,43.653],[-79.3643,43.65313],[-79.36358,43.65357],[-79.36271,43.65408],[-79.36195,43.65458],[-79.36116,43.65487],[-79.36028,43.655],[-79.35941,43.65495],[-79.35697,43.65474],[-79.35629,43.65479],[-79.35587,43.6549],[-79.35552,43.65508],[-79.35482,43.65557],[-79.35343,43.65637]]}},{"type":"Feature","properties":{"role":"w","street":"Adelaide St W"},"geometry":{"type":"LineString","coordinates":[[-79.37843,43.65042],[-79.38078,43.6499],[-79.38407,43.64919],[-79.38556,43.64887],[-79.38865,43.6482],[-79.39156,43.64758],[-79.39219,43.64746],[-79.39281,43.64731],[-79.39553,43.64675],[-79.40009,43.64582],[-79.40058,43.64573],[-79.40183,43.64547],[-79.40323,43.64519]]}},{"type":"Feature","properties":{"role":"w","street":"Adelaide St W"},"geometry":{"type":"LineString","coordinates":[[-79.40323,43.64487],[-79.40435,43.64465],[-79.40448,43.64465],[-79.4049,43.64483],[-79.40578,43.64468],[-79.4063,43.64457],[-79.40877,43.64408],[-79.40976,43.64387],[-79.41123,43.64359],[-79.41244,43.64334],[-79.41321,43.64319],[-79.4155,43.64271]]}},{"type":"Feature","properties":{"role":"e","street":"Bloor St E"},"geometry":{"type":"LineString","coordinates":[[-79.38679,43.67023],[-79.38421,43.6708],[-79.38316,43.67105],[-79.38057,43.67161],[-79.37941,43.67184],[-79.37907,43.67192],[-79.37685,43.67236],[-79.37632,43.67247],[-79.37592,43.67247],[-79.37489,43.67234],[-79.37146,43.67189],[-79.37099,43.67192],[-79.3707,43.67201],[-79.36992,43.67258],[-79.36883,43.67333],[-79.3681,43.67382],[-79.36718,43.67447],[-79.36674,43.67467]]}},{"type":"Feature","properties":{"role":"w","street":"Bloor St W"},"geometry":{"type":"LineString","coordinates":[[-79.38679,43.67023],[-79.38739,43.6701],[-79.38801,43.67],[-79.38948,43.66971],[-79.39058,43.66948],[-79.39099,43.66938],[-79.39414,43.66872],[-79.39738,43.66803],[-79.39984,43.66752],[-79.40152,43.66717],[-79.40269,43.66691],[-79.40383,43.66667],[-79.40452,43.66652],[-79.40628,43.66618],[-79.40747,43.66592],[-79.40998,43.6654],[-79.41059,43.66525],[-79.4112,43.66512],[-79.41365,43.66461],[-79.41598,43.66409],[-79.41842,43.66358],[-79.41884,43.66348],[-79.42162,43.66287],[-79.42206,43.66278],[-79.42325,43.66251],[-79.42565,43.66199],[-79.42802,43.66146],[-79.42814,43.66142],[-79.42942,43.66116],[-79.43042,43.66095],[-79.43289,43.6604],[-79.43409,43.66014],[-79.43533,43.65986],[-79.43644,43.65964],[-79.4376,43.6594],[-79.43866,43.6592],[-79.43973,43.65898],[-79.44039,43.65886],[-79.44158,43.65859],[-79.44273,43.65834],[-79.44397,43.65807],[-79.44522,43.65783],[-79.44695,43.65747],[-79.44774,43.65729],[-79.44892,43.65704],[-79.45245,43.65632],[-79.45382,43.65604],[-79.45435,43.65592],[-79.45684,43.6554],[-79.45705,43.65535],[-79.45881,43.65499],[-79.46003,43.65471],[-79.46232,43.65419],[-79.46322,43.65401],[-79.46526,43.65355],[-79.46687,43.6532],[-79.46866,43.6528],[-79.46999,43.65252],[-79.47176,43.65212],[-79.47404,43.65162],[-79.47518,43.65136],[-79.4763,43.65114],[-79.4772,43.65093],[-79.47905,43.65053],[-79.48047,43.65021],[-79.48292,43.64967],[-79.48446,43.64932],[-79.48483,43.64912],[-79.48575,43.64831],[-79.48624,43.64806],[-79.48671,43.64794],[-79.48748,43.64777],[-79.48814,43.64773],[-79.4894,43.64779],[-79.4901,43.64787],[-79.49084,43.6481],[-79.49411,43.64918],[-79.49537,43.64961],[-79.49627,43.64982],[-79.49706,43.64995],[-79.49841,43.65006],[-79.49901,43.65007],[-79.49932,43.65005],[-79.50204,43.64946],[-79.50321,43.6492],[-79.50431,43.64894],[-79.50545,43.64869],[-79.50774,43.64817],[-79.51136,43.64736],[-79.51248,43.64712],[-79.5136,43.64687],[-79.51457,43.64667],[-79.5158,43.64638],[-79.51752,43.646],[-79.51895,43.64567],[-79.52117,43.6452],[-79.5223,43.64492],[-79.52344,43.64465],[-79.52454,43.64441],[-79.52563,43.64419],[-79.52787,43.64368],[-79.53082,43.64304],[-79.53237,43.64264],[-79.53399,43.64213],[-79.53535,43.6418],[-79.53675,43.64152],[-79.53723,43.6414],[-79.53951,43.6409],[-79.54058,43.64064],[-79.54502,43.63965],[-79.54637,43.63934],[-79.54777,43.63903],[-79.55148,43.63818],[-79.55247,43.63795],[-79.55671,43.63693],[-79.55908,43.63637],[-79.56232,43.63563],[-79.56576,43.6348],[-79.56602,43.63473],[-79.56908,43.63402],[-79.5696,43.63389],[-79.57077,43.63356],[-79.57304,43.63294],[-79.57338,43.6328],[-79.57514,43.63204],[-79.57682,43.6313],[-79.57729,43.63106],[-79.57831,43.63039],[-79.57981,43.62931],[-79.58173,43.62795]]}},{"type":"Feature","properties":{"role":"e","street":"Charles St E"},"geometry":{"type":"LineString","coordinates":[[-79.38599,43.66867],[-79.38526,43.66882],[-79.38324,43.66925],[-79.38259,43.66938]]}},{"type":"Feature","properties":{"role":"e","street":"Charles St E"},"geometry":{"type":"LineString","coordinates":[[-79.38235,43.66943],[-79.38003,43.66994]]}},{"type":"Feature","properties":{"role":"w","street":"Charles St W"},"geometry":{"type":"LineString","coordinates":[[-79.38899,43.66818],[-79.38982,43.66802],[-79.39341,43.66727]]}},{"type":"Feature","properties":{"role":"w","street":"Charles St W"},"geometry":{"type":"LineString","coordinates":[[-79.38626,43.6687],[-79.38739,43.66848],[-79.38822,43.66831],[-79.38875,43.66822]]}},{"type":"Feature","properties":{"role":"e","street":"Dundas St E"},"geometry":{"type":"LineString","coordinates":[[-79.38093,43.65633],[-79.38032,43.65646],[-79.37958,43.65629],[-79.37905,43.65615],[-79.37888,43.65615],[-79.3783,43.65625],[-79.37715,43.6565],[-79.37564,43.65682],[-79.37457,43.65707],[-79.37346,43.6573],[-79.37328,43.65741],[-79.37291,43.65785],[-79.37239,43.65817],[-79.37193,43.65827],[-79.37103,43.65829],[-79.37022,43.65849],[-79.36735,43.65912],[-79.36658,43.6593],[-79.36599,43.65942],[-79.3645,43.65976],[-79.36237,43.66023],[-79.3618,43.66035],[-79.35816,43.6612],[-79.35609,43.66166],[-79.35388,43.66191],[-79.35305,43.66205],[-79.35222,43.66223],[-79.35135,43.66245]]}},{"type":"Feature","properties":{"role":"e","street":"Dundas St E"},"geometry":{"type":"LineString","coordinates":[[-79.35135,43.66245],[-79.34912,43.66298],[-79.3473,43.66339],[-79.34634,43.66357],[-79.34557,43.66369],[-79.3447,43.6638],[-79.34387,43.66392],[-79.34304,43.66416],[-79.34161,43.66484],[-79.34033,43.66513],[-79.33925,43.66541],[-79.3387,43.66554],[-79.33745,43.66581],[-79.33674,43.66591],[-79.33644,43.66592],[-79.33432,43.66617],[-79.33286,43.66646],[-79.33171,43.66674],[-79.33066,43.66697],[-79.32937,43.66727],[-79.32864,43.66745],[-79.32808,43.66754],[-79.32762,43.66758],[-79.32664,43.6676],[-79.32552,43.66765],[-79.32448,43.66768],[-79.32273,43.66777],[-79.32126,43.66807],[-79.31956,43.66845],[-79.31871,43.66865],[-79.31754,43.6687],[-79.31595,43.66904],[-79.31553,43.66914],[-79.31396,43.66927],[-79.31327,43.66948],[-79.31276,43.66975],[-79.31233,43.66988],[-79.31118,43.66997]]}},{"type":"Feature","properties":{"role":"w","street":"Dundas St W"},"geometry":{"type":"LineString","coordinates":[[-79.53237,43.64264],[-79.53223,43.64241],[-79.53215,43.64213],[-79.53222,43.64165],[-79.53241,43.64135],[-79.53262,43.64115],[-79.53308,43.64094],[-79.53481,43.64044],[-79.53614,43.64004],[-79.53668,43.63982],[-79.53686,43.63971],[-79.53759,43.63899],[-79.53798,43.63853],[-79.53842,43.63806],[-79.53899,43.63737],[-79.54008,43.63613],[-79.5405,43.63562],[-79.54132,43.63478],[-79.54322,43.63301],[-79.5437,43.63268],[-79.54466,43.63214],[-79.54659,43.63117],[-79.5469,43.63105],[-79.54916,43.63051],[-79.54982,43.63038],[-79.55192,43.62988],[-79.55498,43.62903],[-79.55629,43.62866],[-79.55726,43.62841],[-79.55893,43.62807],[-79.55911,43.62804],[-79.561,43.62763],[-79.56237,43.62734],[-79.56376,43.62703]]}},{"type":"Feature","properties":{"role":"w","street":"Dundas St W"},"geometry":{"type":"LineString","coordinates":[[-79.46453,43.66541],[-79.46589,43.66543],[-79.46724,43.66544],[-79.46859,43.66546],[-79.47211,43.6655],[-79.47324,43.66552],[-79.47451,43.66553],[-79.47575,43.66553],[-79.47896,43.66556],[-79.48063,43.66558],[-79.4821,43.66558],[-79.48488,43.66561],[-79.48577,43.66563],[-79.48854,43.66564],[-79.4896,43.66566],[-79.49118,43.66572],[-79.49272,43.66569],[-79.49519,43.66572],[-79.49699,43.66577],[-79.49771,43.66573],[-79.49921,43.66552],[-79.50036,43.66525],[-79.5015,43.66488],[-79.50256,43.66439],[-79.50355,43.66387],[-79.50526,43.66293],[-79.50552,43.66281],[-79.50719,43.66192],[-79.50948,43.66101],[-79.51039,43.66067],[-79.51204,43.66003],[-79.51413,43.65923],[-79.51494,43.65891],[-79.51571,43.65855],[-79.5163,43.6583],[-79.51734,43.65793],[-79.51907,43.6573],[-79.52033,43.6569],[-79.52189,43.65626],[-79.52218,43.65603],[-79.52435,43.65363],[-79.5249,43.653],[-79.52546,43.65238],[-79.5264,43.65136],[-79.52875,43.64877],[-79.53035,43.64699],[-79.53297,43.64414],[-79.53346,43.6436],[-79.53399,43.64308],[-79.53446,43.64258],[-79.53464,43.64242]]}},{"type":"Feature","properties":{"role":"w","street":"Dundas St W"},"geometry":{"type":"LineString","coordinates":[[-79.45729,43.66381],[-79.45779,43.66429]]}},{"type":"Feature","properties":{"role":"w","street":"Dundas St W"},"geometry":{"type":"LineString","coordinates":[[-79.45729,43.66381],[-79.45739,43.66364]]}},{"type":"Feature","properties":{"role":"w","street":"Dundas St W"},"geometry":{"type":"LineString","coordinates":[[-79.4567,43.66325],[-79.45729,43.66381]]}},{"type":"Feature","properties":{"role":"w","street":"Dundas St W"},"geometry":{"type":"LineString","coordinates":[[-79.38093,43.65633],[-79.38373,43.65572],[-79.38711,43.655],[-79.38793,43.65483],[-79.38832,43.65481],[-79.3892,43.65468],[-79.39031,43.65448],[-79.39055,43.6545],[-79.39386,43.65382],[-79.39702,43.65317],[-79.39804,43.65293],[-79.39913,43.65269],[-79.40111,43.65227],[-79.40224,43.65204],[-79.40285,43.65193],[-79.40375,43.65174],[-79.40406,43.6518],[-79.40485,43.65216],[-79.40536,43.65236],[-79.4056,43.65238],[-79.40601,43.6523],[-79.40971,43.65155],[-79.41091,43.6513],[-79.41281,43.65093],[-79.41493,43.65049],[-79.41829,43.64983],[-79.41891,43.64969],[-79.42021,43.64943],[-79.42078,43.64933]]}},{"type":"Feature","properties":{"role":"w","street":"Dundas St W"},"geometry":{"type":"LineString","coordinates":[[-79.42078,43.64933],[-79.42379,43.64941],[-79.4247,43.64944],[-79.43092,43.64962],[-79.43143,43.64964],[-79.43314,43.64974],[-79.43365,43.64976],[-79.43697,43.64998],[-79.43973,43.65017],[-79.44102,43.65028],[-79.44145,43.65032],[-79.44215,43.65047],[-79.44302,43.65069],[-79.44405,43.65091],[-79.44532,43.6512],[-79.44681,43.65159],[-79.4476,43.65191],[-79.44916,43.65261],[-79.45012,43.65305],[-79.45159,43.65371],[-79.45185,43.65388],[-79.45245,43.65632],[-79.45271,43.65729],[-79.45293,43.65816],[-79.45366,43.65993],[-79.45389,43.66039],[-79.45422,43.66074],[-79.45496,43.66149],[-79.45646,43.66303],[-79.4567,43.66325],[-79.45739,43.66364],[-79.45826,43.66414],[-79.45881,43.66444],[-79.45927,43.66468],[-79.46105,43.66518],[-79.46175,43.66534],[-79.46228,43.66538],[-79.46327,43.6654],[-79.46453,43.66541]]}},{"type":"Feature","properties":{"role":"w","street":"Dundas St W"},"geometry":{"type":"LineString","coordinates":[[-79.53246,43.64274],[-79.53284,43.64316],[-79.53336,43.64353]]}},{"type":"Feature","properties":{"role":"e","street":"Eglinton Ave E"},"geometry":{"type":"LineString","coordinates":[[-79.39832,43.70675],[-79.39747,43.70692],[-79.39546,43.70734],[-79.39282,43.70786],[-79.39016,43.70842],[-79.38883,43.70867],[-79.3862,43.70919],[-79.38488,43.70946],[-79.38359,43.70974],[-79.38321,43.70981],[-79.38225,43.71002],[-79.38093,43.71027],[-79.37961,43.71055],[-79.37835,43.71077],[-79.37709,43.71105],[-79.37358,43.7118],[-79.37207,43.7121],[-79.36966,43.71257],[-79.36723,43.71308],[-79.3648,43.71357],[-79.36118,43.71432],[-79.3598,43.71461],[-79.35794,43.71505],[-79.35496,43.71562],[-79.35263,43.71623],[-79.35237,43.71631],[-79.35153,43.71652],[-79.34991,43.71705],[-79.34775,43.71773],[-79.34428,43.71881],[-79.3412,43.71979],[-79.33887,43.7205],[-79.33657,43.72122],[-79.33393,43.72202],[-79.33287,43.72235],[-79.32968,43.72329],[-79.32853,43.72358],[-79.32704,43.72397],[-79.3253,43.7244],[-79.32365,43.72483],[-79.32234,43.72519],[-79.32194,43.72528],[-79.31951,43.72591],[-79.31829,43.72613],[-79.31689,43.72626],[-79.31577,43.72627],[-79.31456,43.72619],[-79.31352,43.72604],[-79.30831,43.72525],[-79.3075,43.72512],[-79.30701,43.72506],[-79.30619,43.72493],[-79.30481,43.72476],[-79.30372,43.72469],[-79.30265,43.72472],[-79.30065,43.72496],[-79.29755,43.72564],[-79.28762,43.72785],[-79.28484,43.72847],[-79.28124,43.72926],[-79.28073,43.72936],[-79.27786,43.72996],[-79.27396,43.73083],[-79.27124,43.7315],[-79.26797,43.73225],[-79.26606,43.73267]]}},{"type":"Feature","properties":{"role":"e","street":"Eglinton Ave E"},"geometry":{"type":"LineString","coordinates":[[-79.26606,43.73267],[-79.2633,43.73336]]}},{"type":"Feature","properties":{"role":"e","street":"Eglinton Ave E"},"geometry":{"type":"LineString","coordinates":[[-79.26606,43.73267],[-79.26611,43.7329],[-79.26594,43.73309],[-79.26529,43.73311],[-79.26497,43.73321],[-79.26369,43.73353],[-79.26342,43.73352],[-79.2633,43.73336]]}},{"type":"Feature","properties":{"role":"e","street":"Eglinton Ave E"},"geometry":{"type":"LineString","coordinates":[[-79.2633,43.73336],[-79.2632,43.73312],[-79.26457,43.7328],[-79.2652,43.73264],[-79.26557,43.73248],[-79.26596,43.73257],[-79.26606,43.73267]]}},{"type":"Feature","properties":{"role":"e","street":"Eglinton Ave E"},"geometry":{"type":"LineString","coordinates":[[-79.2633,43.73336],[-79.2618,43.73371]]}},{"type":"Feature","properties":{"role":"e","street":"Eglinton Ave E"},"geometry":{"type":"LineString","coordinates":[[-79.2618,43.73371],[-79.26014,43.7341]]}},{"type":"Feature","properties":{"role":"e","street":"Eglinton Ave E"},"geometry":{"type":"LineString","coordinates":[[-79.2618,43.73371],[-79.26186,43.73391],[-79.26175,43.73401],[-79.26043,43.73433],[-79.26026,43.73431],[-79.26014,43.7341]]}},{"type":"Feature","properties":{"role":"e","street":"Eglinton Ave E"},"geometry":{"type":"LineString","coordinates":[[-79.26014,43.7341],[-79.26009,43.73392],[-79.26014,43.73381],[-79.26067,43.73367],[-79.26161,43.73348],[-79.26172,43.73351],[-79.2618,43.73371]]}},{"type":"Feature","properties":{"role":"e","street":"Eglinton Ave E"},"geometry":{"type":"LineString","coordinates":[[-79.26014,43.7341],[-79.25813,43.73453],[-79.25561,43.73507],[-79.25438,43.73536],[-79.25205,43.73585],[-79.24808,43.7367],[-79.24626,43.73708],[-79.24374,43.73763],[-79.24157,43.73813],[-79.23841,43.73884],[-79.23526,43.73953],[-79.23205,43.74026],[-79.23012,43.74069],[-79.22755,43.74127],[-79.22516,43.74179],[-79.22211,43.74249],[-79.22056,43.74283],[-79.21891,43.74318],[-79.21557,43.74395],[-79.21377,43.74434],[-79.21337,43.74428],[-79.21263,43.74406],[-79.21166,43.74375]]}},{"type":"Feature","properties":{"role":"w","street":"Eglinton Ave W"},"geometry":{"type":"LineString","coordinates":[[-79.56829,43.67343],[-79.56933,43.67285],[-79.57129,43.67183],[-79.57194,43.67161],[-79.57257,43.67146],[-79.57331,43.67132],[-79.57503,43.67103],[-79.57691,43.67069],[-79.57776,43.67057],[-79.58083,43.67036],[-79.58141,43.67027],[-79.58412,43.66964],[-79.5847,43.66947],[-79.5854,43.66917],[-79.58596,43.66882],[-79.58656,43.66822],[-79.58686,43.6678],[-79.58768,43.6661],[-79.58774,43.66595],[-79.58803,43.66547],[-79.58878,43.66462],[-79.59256,43.66116],[-79.59412,43.65972],[-79.59841,43.65583],[-79.6031,43.65158],[-79.60635,43.64862],[-79.60806,43.64707],[-79.60873,43.64645]]}},{"type":"Feature","properties":{"role":"w","street":"Eglinton Ave W"},"geometry":{"type":"LineString","coordinates":[[-79.56318,43.67448],[-79.56348,43.67437],[-79.56509,43.67417],[-79.56736,43.674],[-79.56755,43.67392],[-79.56781,43.67364],[-79.56829,43.67343]]}},{"type":"Feature","properties":{"role":"w","street":"Eglinton Ave W"},"geometry":{"type":"LineString","coordinates":[[-79.56318,43.67448],[-79.56539,43.67432],[-79.5665,43.67418],[-79.56775,43.6741],[-79.56796,43.67396],[-79.56829,43.67343]]}},{"type":"Feature","properties":{"role":"w","street":"Eglinton Ave W"},"geometry":{"type":"LineString","coordinates":[[-79.39832,43.70675],[-79.40028,43.70635],[-79.4017,43.70604],[-79.40273,43.70583],[-79.40371,43.7056],[-79.40611,43.70509],[-79.40737,43.70482],[-79.40852,43.7046],[-79.4096,43.70437],[-79.41162,43.70396],[-79.41321,43.70361],[-79.41435,43.70338],[-79.41549,43.70312],[-79.41709,43.70278],[-79.41911,43.70237],[-79.42089,43.702],[-79.42314,43.70151],[-79.42556,43.70099],[-79.42774,43.70054],[-79.42881,43.7003],[-79.43383,43.69923],[-79.43503,43.69899],[-79.43719,43.69851],[-79.43938,43.69804],[-79.44026,43.69785],[-79.44277,43.69729],[-79.44528,43.69677],[-79.44733,43.69636],[-79.44769,43.69626],[-79.45028,43.69569],[-79.4516,43.6954],[-79.45279,43.69513],[-79.45396,43.69488],[-79.45736,43.69411],[-79.45966,43.6936],[-79.46097,43.6933],[-79.46221,43.69303],[-79.46304,43.69285],[-79.46347,43.69268],[-79.46399,43.69241],[-79.46457,43.69217],[-79.46534,43.69195],[-79.46634,43.69182],[-79.46763,43.69176],[-79.46828,43.69167],[-79.46944,43.69143],[-79.47152,43.69098],[-79.4727,43.69069],[-79.47506,43.69017],[-79.47609,43.68992],[-79.47715,43.68968],[-79.47821,43.68942],[-79.47949,43.68895],[-79.48105,43.68878],[-79.48288,43.68837],[-79.48373,43.68817],[-79.48621,43.68763],[-79.48953,43.68699],[-79.49122,43.6866],[-79.49435,43.68578],[-79.49687,43.68498],[-79.49882,43.68448],[-79.49907,43.68444],[-79.50072,43.68407],[-79.50176,43.68399],[-79.50297,43.68408],[-79.50422,43.68438],[-79.50561,43.68463],[-79.5064,43.68468],[-79.50714,43.68465],[-79.50808,43.68452],[-79.51024,43.68414],[-79.51145,43.68395],[-79.51337,43.68359],[-79.51446,43.68344],[-79.51582,43.68336],[-79.51703,43.68343],[-79.52006,43.68337],[-79.52231,43.68317],[-79.52661,43.68233],[-79.52763,43.68206],[-79.5299,43.6817],[-79.53281,43.6811],[-79.53901,43.67984],[-79.54486,43.67854],[-79.5483,43.67779],[-79.54988,43.67743],[-79.5509,43.67719],[-79.55767,43.67562],[-79.5613,43.67479],[-79.56318,43.67448]]}},{"type":"Feature","properties":{"role":"e","street":"Finch Ave E"},"geometry":{"type":"LineString","coordinates":[[-79.41558,43.77977],[-79.41237,43.78046],[-79.40972,43.78106],[-79.40711,43.78163],[-79.40548,43.78198],[-79.40188,43.78276],[-79.40061,43.78305],[-79.39873,43.78347],[-79.3963,43.78399],[-79.39595,43.78408],[-79.39328,43.78466],[-79.3924,43.78489],[-79.39215,43.78501],[-79.39137,43.78518],[-79.38907,43.78573],[-79.38437,43.78676],[-79.37589,43.78859],[-79.37154,43.78954],[-79.37033,43.78981],[-79.36896,43.79006],[-79.36804,43.79003],[-79.36681,43.79005],[-79.36534,43.79034],[-79.36308,43.79085],[-79.35807,43.79196],[-79.35581,43.79244],[-79.35474,43.79266],[-79.35229,43.79316],[-79.35044,43.79363],[-79.3474,43.79436],[-79.34567,43.79474],[-79.34376,43.79513],[-79.34346,43.79517],[-79.34207,43.79521],[-79.34126,43.79515],[-79.33969,43.79479],[-79.33882,43.79447],[-79.33698,43.79353],[-79.33581,43.79298],[-79.33524,43.79281],[-79.33458,43.79272],[-79.3336,43.79271],[-79.33314,43.79277],[-79.33198,43.79295],[-79.33141,43.79311],[-79.32597,43.79433],[-79.31931,43.79585],[-79.31789,43.79618],[-79.31577,43.79677],[-79.31231,43.79749],[-79.30921,43.79824],[-79.3091,43.79826],[-79.30598,43.799],[-79.29965,43.80052],[-79.2966,43.80127],[-79.2943,43.80181],[-79.29158,43.80247],[-79.28891,43.80313],[-79.28629,43.80375],[-79.28213,43.80465],[-79.27736,43.8057],[-79.27294,43.80665],[-79.27038,43.80719],[-79.26651,43.80803],[-79.26278,43.80883],[-79.2577,43.80989],[-79.25292,43.81085],[-79.24984,43.81156],[-79.24667,43.81221],[-79.24433,43.81271],[-79.24308,43.81297]]}},{"type":"Feature","properties":{"role":"e","street":"Finch Ave E"},"geometry":{"type":"LineString","coordinates":[[-79.24308,43.81297],[-79.23714,43.81424],[-79.23237,43.81529],[-79.23152,43.81547],[-79.2279,43.81626],[-79.22756,43.81633],[-79.22526,43.81681],[-79.2243,43.81694],[-79.22295,43.81704],[-79.22242,43.81714],[-79.22193,43.81733],[-79.22143,43.81767],[-79.22112,43.81799],[-79.22093,43.81848],[-79.2209,43.81874],[-79.22107,43.8197]]}},{"type":"Feature","properties":{"role":"w","street":"Finch Ave W"},"geometry":{"type":"LineString","coordinates":[[-79.41558,43.77977],[-79.41744,43.77936],[-79.41851,43.77914],[-79.41958,43.77888],[-79.42064,43.77865],[-79.42153,43.77844],[-79.42428,43.77783],[-79.4254,43.77759],[-79.42577,43.7775],[-79.43026,43.77649],[-79.43172,43.77619],[-79.43273,43.77596],[-79.43388,43.77571],[-79.43501,43.77545],[-79.43649,43.77513],[-79.44104,43.77411],[-79.44301,43.77386],[-79.44531,43.77351],[-79.44822,43.77286],[-79.45262,43.77197],[-79.45606,43.77125],[-79.46071,43.77024],[-79.46466,43.76937],[-79.46693,43.76885],[-79.47146,43.76783],[-79.47751,43.7665],[-79.48081,43.76576],[-79.48552,43.76469],[-79.48824,43.7641],[-79.49101,43.76347],[-79.49251,43.76311],[-79.49364,43.7626],[-79.49456,43.76227],[-79.49827,43.76144],[-79.5,43.76106],[-79.50348,43.76028],[-79.50488,43.75996],[-79.50954,43.75892],[-79.51341,43.75807],[-79.51536,43.75762],[-79.51613,43.75747],[-79.51769,43.75726],[-79.51937,43.75704],[-79.52066,43.75677],[-79.52245,43.75636],[-79.52429,43.75593],[-79.52856,43.75492],[-79.53089,43.75439],[-79.53273,43.75401],[-79.53454,43.75366],[-79.53621,43.7533],[-79.53997,43.75249],[-79.54237,43.75204],[-79.5442,43.7517],[-79.5457,43.75137],[-79.54752,43.75099],[-79.5491,43.75065],[-79.55226,43.74998],[-79.55874,43.74858],[-79.56236,43.74782],[-79.56441,43.74735],[-79.56602,43.74688],[-79.56857,43.74622],[-79.57097,43.74561],[-79.57357,43.74506],[-79.5796,43.74364],[-79.58212,43.74326],[-79.58261,43.74321],[-79.58336,43.74321],[-79.58482,43.74343],[-79.58556,43.74345],[-79.58605,43.7434],[-79.58747,43.74307],[-79.5881,43.74279],[-79.58858,43.74238],[-79.58881,43.74203],[-79.58921,43.74112],[-79.58974,43.73986],[-79.58987,43.73882],[-79.58998,43.73783],[-79.59012,43.73749],[-79.59032,43.73727],[-79.59058,43.7371],[-79.59165,43.73679],[-79.59491,43.73604],[-79.59819,43.73529],[-79.59887,43.73515],[-79.60097,43.73467],[-79.60309,43.73417],[-79.60324,43.73414],[-79.60529,43.73371],[-79.60601,43.73368],[-79.60668,43.73372],[-79.60991,43.7341],[-79.61788,43.73504],[-79.62089,43.73531],[-79.62188,43.73519],[-79.6234,43.73491],[-79.62351,43.73488],[-79.62553,43.73449],[-79.62897,43.73381]]}},{"type":"Feature","properties":{"role":"e","street":"Front St E"},"geometry":{"type":"LineString","coordinates":[[-79.37697,43.64688],[-79.37576,43.64746],[-79.37425,43.6482],[-79.37377,43.64841],[-79.37331,43.64868]]}},{"type":"Feature","properties":{"role":"e","street":"Front St E"},"geometry":{"type":"LineString","coordinates":[[-79.37383,43.6486],[-79.37331,43.64868]]}},{"type":"Feature","properties":{"role":"e","street":"Front St E"},"geometry":{"type":"LineString","coordinates":[[-79.37331,43.64868],[-79.37144,43.64943],[-79.37028,43.64983],[-79.36907,43.6501],[-79.36789,43.65039],[-79.36668,43.65067],[-79.36561,43.6509],[-79.36402,43.65126],[-79.36272,43.65157],[-79.36134,43.65188]]}},{"type":"Feature","properties":{"role":"e","street":"Front St E"},"geometry":{"type":"LineString","coordinates":[[-79.36097,43.65193],[-79.36034,43.6521],[-79.35809,43.65262]]}},{"type":"Feature","properties":{"role":"w","street":"Front St W"},"geometry":{"type":"LineString","coordinates":[[-79.37697,43.64688],[-79.37747,43.64648],[-79.37786,43.64628],[-79.37823,43.64616],[-79.37913,43.64599],[-79.38247,43.64529],[-79.38343,43.64508],[-79.38502,43.64476],[-79.38866,43.64398],[-79.39129,43.64342],[-79.39393,43.64274],[-79.39882,43.64141],[-79.40142,43.64075]]}},{"type":"Feature","properties":{"role":"e","street":"Gerrard St E"},"geometry":{"type":"LineString","coordinates":[[-79.3821,43.65909],[-79.37854,43.65986],[-79.3759,43.66044],[-79.37224,43.66123],[-79.37143,43.66139],[-79.37069,43.66155],[-79.36972,43.66178],[-79.36818,43.66211],[-79.36746,43.66196],[-79.36701,43.66194],[-79.36233,43.66297],[-79.36033,43.66343],[-79.35976,43.66355],[-79.35924,43.66369],[-79.35686,43.66436],[-79.35532,43.66478],[-79.35332,43.66535],[-79.35262,43.66549],[-79.35214,43.66555],[-79.34942,43.66614],[-79.34852,43.66634],[-79.34702,43.66666],[-79.3452,43.66709],[-79.34377,43.66742],[-79.34276,43.66763],[-79.34041,43.66814],[-79.33875,43.66851],[-79.3356,43.66922],[-79.33304,43.6698],[-79.33057,43.67035],[-79.32802,43.67091],[-79.32504,43.67158],[-79.32397,43.67183],[-79.32037,43.67264],[-79.31931,43.67291]]}},{"type":"Feature","properties":{"role":"e","street":"Gerrard St E"},"geometry":{"type":"LineString","coordinates":[[-79.3203,43.67534],[-79.31958,43.67573],[-79.31735,43.67604],[-79.31693,43.67619],[-79.31606,43.67687],[-79.31574,43.67715],[-79.31502,43.67803],[-79.31418,43.67865],[-79.31352,43.67916],[-79.31187,43.68038],[-79.31075,43.68079],[-79.30977,43.68127],[-79.30876,43.6818],[-79.30828,43.68203],[-79.30777,43.68219],[-79.30547,43.68281],[-79.30418,43.68308],[-79.30152,43.68366],[-79.30016,43.68395],[-79.29876,43.68425],[-79.29745,43.68455],[-79.29468,43.68515],[-79.29346,43.68542],[-79.29075,43.68601],[-79.28949,43.68628],[-79.28755,43.68668],[-79.28658,43.6869],[-79.28287,43.68771],[-79.27822,43.68871],[-79.27807,43.68878]]}},{"type":"Feature","properties":{"role":"e","street":"Gerrard St E"},"geometry":{"type":"LineString","coordinates":[[-79.34245,43.66715],[-79.34156,43.66769]]}},{"type":"Feature","properties":{"role":"w","street":"Gerrard St W"},"geometry":{"type":"LineString","coordinates":[[-79.3821,43.65909],[-79.38486,43.65849],[-79.38565,43.65832],[-79.38638,43.65818],[-79.3895,43.65755]]}},{"type":"Feature","properties":{"role":"w","street":"Glengrove Ave W"},"geometry":{"type":"LineString","coordinates":[[-79.41359,43.71693],[-79.4148,43.71667],[-79.41783,43.71605],[-79.42155,43.7153]]}},{"type":"Feature","properties":{"role":"w","street":"Glengrove Ave W"},"geometry":{"type":"LineString","coordinates":[[-79.40407,43.71888],[-79.40639,43.7184],[-79.4095,43.71777],[-79.41329,43.71699]]}},{"type":"Feature","properties":{"role":"w","street":"Glengrove Ave W"},"geometry":{"type":"LineString","coordinates":[[-79.40121,43.71949],[-79.40127,43.71945],[-79.40383,43.71892]]}},{"type":"Feature","properties":{"role":"e","street":"Heath St E"},"geometry":{"type":"LineString","coordinates":[[-79.39475,43.69001],[-79.39339,43.6903],[-79.39326,43.69033]]}},{"type":"Feature","properties":{"role":"w","street":"Heath St W"},"geometry":{"type":"LineString","coordinates":[[-79.41217,43.68676],[-79.41262,43.68667],[-79.41315,43.68654],[-79.41439,43.6863],[-79.41611,43.686]]}},{"type":"Feature","properties":{"role":"w","street":"Heath St W"},"geometry":{"type":"LineString","coordinates":[[-79.40243,43.68869],[-79.40557,43.68806],[-79.40868,43.68742],[-79.41018,43.68713],[-79.4104,43.68712],[-79.41193,43.6868]]}},{"type":"Feature","properties":{"role":"w","street":"Heath St W"},"geometry":{"type":"LineString","coordinates":[[-79.39505,43.69016],[-79.39746,43.68968],[-79.39884,43.6894],[-79.4007,43.68904],[-79.40219,43.68873]]}},{"type":"Feature","properties":{"role":"e","street":"King St E"},"geometry":{"type":"LineString","coordinates":[[-79.37789,43.64916],[-79.37593,43.64958],[-79.37441,43.64992],[-79.37345,43.65011],[-79.37189,43.65046],[-79.37069,43.65073],[-79.36824,43.65127],[-79.36606,43.65175],[-79.36439,43.65213],[-79.36321,43.65273],[-79.36119,43.65391],[-79.36032,43.65443],[-79.35941,43.65495],[-79.35918,43.65509],[-79.35841,43.65555],[-79.35698,43.65638],[-79.35616,43.65687],[-79.35524,43.65756],[-79.35496,43.65774]]}},{"type":"Feature","properties":{"role":"w","street":"King St W"},"geometry":{"type":"LineString","coordinates":[[-79.37789,43.64916],[-79.38026,43.64865],[-79.38355,43.64793],[-79.38481,43.64766],[-79.38543,43.64752],[-79.38973,43.6466],[-79.39105,43.64633],[-79.3923,43.64604],[-79.39359,43.64576],[-79.39502,43.64546],[-79.39761,43.64494],[-79.40006,43.64444],[-79.40271,43.64393],[-79.40772,43.64291],[-79.40883,43.64267],[-79.41012,43.64242],[-79.41072,43.64229],[-79.41197,43.64204],[-79.415,43.64143],[-79.41662,43.64112],[-79.41734,43.64097],[-79.41955,43.64053],[-79.42127,43.64017],[-79.42355,43.63971],[-79.42603,43.63922],[-79.42735,43.63894],[-79.42883,43.63864],[-79.43036,43.63835],[-79.43187,43.63802],[-79.4347,43.63744],[-79.43604,43.63718],[-79.43725,43.63692],[-79.4399,43.63641],[-79.44124,43.63652],[-79.44157,43.63664],[-79.44191,43.63681],[-79.44227,43.63705],[-79.44366,43.63766],[-79.44549,43.63833],[-79.44596,43.63852],[-79.4461,43.63874]]}},{"type":"Feature","properties":{"role":"e","street":"Lake Shore Blvd E"},"geometry":{"type":"LineString","coordinates":[[-79.37577,43.64406],[-79.3751,43.64438],[-79.37457,43.64458],[-79.37271,43.64501],[-79.36986,43.64563],[-79.36613,43.64644],[-79.36386,43.64695]]}},{"type":"Feature","properties":{"role":"e","street":"Lake Shore Blvd E"},"geometry":{"type":"LineString","coordinates":[[-79.37547,43.64333],[-79.37526,43.64386],[-79.37507,43.64412],[-79.37476,43.64432],[-79.37406,43.64457],[-79.37232,43.64499],[-79.37106,43.64524],[-79.36982,43.64554],[-79.36607,43.6463],[-79.36491,43.64659],[-79.36411,43.64683],[-79.36386,43.64695]]}},{"type":"Feature","properties":{"role":"e","street":"Lake Shore Blvd E"},"geometry":{"type":"LineString","coordinates":[[-79.36386,43.64695],[-79.36236,43.64734],[-79.36121,43.64768],[-79.35788,43.64878],[-79.35723,43.64892],[-79.35645,43.649],[-79.35593,43.64899],[-79.3549,43.64831],[-79.35465,43.64826],[-79.35408,43.6483],[-79.35338,43.64845],[-79.35255,43.64881],[-79.3513,43.64914],[-79.34735,43.65086],[-79.34695,43.65101],[-79.34432,43.65209],[-79.34199,43.65309],[-79.34084,43.65364],[-79.33971,43.65406],[-79.33869,43.65452],[-79.33743,43.655]]}},{"type":"Feature","properties":{"role":"e","street":"Lake Shore Blvd E"},"geometry":{"type":"LineString","coordinates":[[-79.33743,43.655],[-79.33216,43.65745],[-79.32959,43.65856],[-79.32853,43.65893],[-79.32801,43.65906],[-79.32402,43.66001],[-79.3217,43.66072]]}},{"type":"Feature","properties":{"role":"e","street":"Lake Shore Blvd E"},"geometry":{"type":"LineString","coordinates":[[-79.33743,43.655],[-79.33732,43.65523],[-79.33059,43.65839],[-79.32918,43.65899],[-79.32844,43.65924],[-79.32819,43.65929],[-79.3217,43.66072]]}},{"type":"Feature","properties":{"role":"e","street":"Lake Shore Blvd E"},"geometry":{"type":"LineString","coordinates":[[-79.3217,43.66072],[-79.31494,43.66226],[-79.31482,43.66228],[-79.30866,43.66364],[-79.30724,43.66397],[-79.30622,43.66436],[-79.30546,43.66492],[-79.30493,43.66554],[-79.30479,43.66584],[-79.30478,43.66622]]}},{"type":"Feature","properties":{"role":"w","street":"Lake Shore Blvd W"},"geometry":{"type":"LineString","coordinates":[[-79.4467,43.637],[-79.44742,43.63701],[-79.448,43.63709],[-79.45225,43.63784],[-79.45504,43.6381],[-79.45687,43.63806],[-79.45896,43.63774],[-79.46017,43.6375],[-79.4614,43.63747],[-79.46227,43.63733],[-79.46288,43.63712],[-79.46388,43.63656],[-79.46514,43.6361],[-79.46692,43.63544],[-79.46796,43.63496],[-79.46977,43.63403],[-79.47088,43.63375],[-79.47187,43.63353],[-79.47266,43.63321],[-79.47316,43.63297],[-79.47446,43.63223],[-79.47499,43.63187],[-79.47578,43.63098],[-79.47691,43.63027],[-79.47755,43.62974],[-79.47806,43.62923],[-79.47846,43.62874],[-79.47863,43.62841],[-79.47902,43.62731],[-79.4794,43.62646],[-79.48,43.62521],[-79.48053,43.62414],[-79.48121,43.62297],[-79.48179,43.62222],[-79.48248,43.6212],[-79.48275,43.62093],[-79.48327,43.62051],[-79.48372,43.6203],[-79.48474,43.62006],[-79.48555,43.61982],[-79.48592,43.6196],[-79.48619,43.61934],[-79.48647,43.61893],[-79.48734,43.61731],[-79.48823,43.61574],[-79.48914,43.61408],[-79.48971,43.61307],[-79.48989,43.61215],[-79.49021,43.61005],[-79.49036,43.6083],[-79.49049,43.60698],[-79.49054,43.60674],[-79.49086,43.60597],[-79.49115,43.6054],[-79.49145,43.60494],[-79.49211,43.60428],[-79.49279,43.60383],[-79.49317,43.60365],[-79.49559,43.60263],[-79.496,43.60253],[-79.49795,43.60238],[-79.49848,43.60228],[-79.50076,43.60176],[-79.50303,43.60126],[-79.50527,43.60076],[-79.50642,43.60052],[-79.50866,43.60003],[-79.51077,43.59955],[-79.51185,43.59933],[-79.51394,43.59887],[-79.51445,43.59875],[-79.51698,43.5982],[-79.51803,43.59797],[-79.52023,43.59747],[-79.5244,43.59656],[-79.52762,43.59584],[-79.5283,43.59568],[-79.53097,43.59508],[-79.53237,43.59476],[-79.53398,43.59438],[-79.53558,43.59401],[-79.53863,43.59332],[-79.5394,43.59314],[-79.54177,43.59261],[-79.54283,43.5923],[-79.54325,43.59211],[-79.54386,43.59166],[-79.54493,43.59054],[-79.54641,43.58893]]}},{"type":"Feature","properties":{"role":"w","street":"Lake Shore Blvd W"},"geometry":{"type":"LineString","coordinates":[[-79.44621,43.63731],[-79.44892,43.63796],[-79.45129,43.63832],[-79.45224,43.63842],[-79.45352,43.63837],[-79.45411,43.63833],[-79.45517,43.63837],[-79.45696,43.63831],[-79.459,43.63799],[-79.46026,43.63774],[-79.46165,43.6377],[-79.46233,43.63758],[-79.4631,43.63732],[-79.46424,43.6367],[-79.46533,43.63636],[-79.46666,43.63587],[-79.46818,43.6352],[-79.47013,43.63416],[-79.47053,43.63403],[-79.47145,43.63395]]}},{"type":"Feature","properties":{"role":"w","street":"Lake Shore Blvd W"},"geometry":{"type":"LineString","coordinates":[[-79.44484,43.6368],[-79.44575,43.63704],[-79.4467,43.637]]}},{"type":"Feature","properties":{"role":"w","street":"Lake Shore Blvd W"},"geometry":{"type":"LineString","coordinates":[[-79.4467,43.637],[-79.44627,43.63714],[-79.44621,43.63731]]}},{"type":"Feature","properties":{"role":"w","street":"Lake Shore Blvd W"},"geometry":{"type":"LineString","coordinates":[[-79.44484,43.6368],[-79.44531,43.63707],[-79.44621,43.63731]]}},{"type":"Feature","properties":{"role":"w","street":"Lake Shore Blvd W"},"geometry":{"type":"LineString","coordinates":[[-79.43781,43.63395],[-79.43844,43.63424],[-79.44139,43.63551],[-79.4435,43.63623],[-79.44484,43.6368]]}},{"type":"Feature","properties":{"role":"w","street":"Lake Shore Blvd W"},"geometry":{"type":"LineString","coordinates":[[-79.42817,43.63095],[-79.43001,43.63143],[-79.43126,43.63166],[-79.43307,43.63187],[-79.43382,43.63199],[-79.43495,43.63224],[-79.43518,43.63231],[-79.43604,43.63265],[-79.43654,43.63297],[-79.43781,43.63395]]}},{"type":"Feature","properties":{"role":"w","street":"Lake Shore Blvd W"},"geometry":{"type":"LineString","coordinates":[[-79.42817,43.63095],[-79.42864,43.63114],[-79.42918,43.63143],[-79.43111,43.63256],[-79.43166,43.63283],[-79.43266,43.63306],[-79.43457,43.63337],[-79.43636,43.63347],[-79.43688,43.63355],[-79.4376,43.6339],[-79.43781,43.63395]]}},{"type":"Feature","properties":{"role":"w","street":"Lake Shore Blvd W"},"geometry":{"type":"LineString","coordinates":[[-79.39799,43.63705],[-79.39963,43.63648],[-79.40104,43.63603],[-79.40197,43.63586],[-79.40327,43.63576],[-79.4038,43.63573],[-79.40671,43.63548],[-79.40762,43.63527],[-79.40812,43.63502],[-79.40871,43.63448],[-79.40946,43.63332],[-79.40977,43.63296],[-79.4102,43.63268],[-79.41447,43.63134],[-79.41496,43.6312],[-79.41556,43.63111],[-79.41864,43.63062],[-79.41981,43.63048],[-79.42324,43.63015],[-79.42484,43.63003],[-79.42524,43.63003],[-79.42566,43.63009],[-79.42817,43.63095]]}},{"type":"Feature","properties":{"role":"w","street":"Lake Shore Blvd W"},"geometry":{"type":"LineString","coordinates":[[-79.39347,43.63817],[-79.39404,43.63807],[-79.39513,43.63796],[-79.3958,43.63778],[-79.39713,43.63729],[-79.39799,43.63705]]}},{"type":"Feature","properties":{"role":"w","street":"Lake Shore Blvd W"},"geometry":{"type":"LineString","coordinates":[[-79.38257,43.64061],[-79.38279,43.64057],[-79.3833,43.64053],[-79.38447,43.64025],[-79.38502,43.64025],[-79.38589,43.64013],[-79.38956,43.6395],[-79.39243,43.63902],[-79.39484,43.6386],[-79.39574,43.63827],[-79.39616,43.63809],[-79.39656,43.63782],[-79.39799,43.63705]]}},{"type":"Feature","properties":{"role":"w","street":"Lake Shore Blvd W"},"geometry":{"type":"LineString","coordinates":[[-79.38257,43.64061],[-79.38319,43.64034],[-79.38412,43.64001],[-79.38544,43.63971],[-79.38686,43.63952],[-79.39173,43.63867],[-79.39223,43.63854],[-79.39244,43.63843],[-79.39347,43.63817]]}},{"type":"Feature","properties":{"role":"w","street":"Lake Shore Blvd W"},"geometry":{"type":"LineString","coordinates":[[-79.39313,43.63839],[-79.39347,43.63817]]}},{"type":"Feature","properties":{"role":"w","street":"Lake Shore Blvd W"},"geometry":{"type":"LineString","coordinates":[[-79.37577,43.64406],[-79.37782,43.64301],[-79.37874,43.64257],[-79.3796,43.6421],[-79.38089,43.64152],[-79.38257,43.64061]]}},{"type":"Feature","properties":{"role":"e","street":"Lawrence Ave E"},"geometry":{"type":"LineString","coordinates":[[-79.4022,43.7251],[-79.40001,43.72557],[-79.39931,43.72573],[-79.39725,43.72615],[-79.3961,43.7264],[-79.39392,43.72686],[-79.39199,43.72726],[-79.39008,43.72768],[-79.3865,43.72841],[-79.38614,43.72844],[-79.38559,43.72836],[-79.38351,43.72782],[-79.38289,43.7277],[-79.38189,43.72753],[-79.38167,43.72748]]}},{"type":"Feature","properties":{"role":"e","street":"Lawrence Ave E"},"geometry":{"type":"LineString","coordinates":[[-79.35596,43.73454],[-79.35423,43.7349],[-79.35107,43.73557],[-79.34995,43.73579],[-79.34655,43.73651],[-79.34345,43.73717],[-79.34098,43.7377],[-79.33822,43.73829],[-79.33708,43.73851],[-79.33472,43.73894],[-79.33209,43.7395],[-79.32844,43.74019],[-79.32471,43.74079],[-79.32214,43.74101],[-79.31926,43.74118],[-79.3162,43.74137],[-79.31418,43.7415],[-79.31144,43.7418],[-79.30979,43.74214],[-79.30741,43.74264],[-79.30465,43.74324],[-79.30222,43.74377],[-79.29769,43.74475],[-79.29592,43.74512],[-79.29473,43.74538],[-79.29232,43.7459],[-79.29127,43.7461],[-79.29092,43.74618],[-79.28796,43.74682],[-79.28484,43.74752],[-79.28196,43.74809],[-79.28145,43.7482],[-79.27495,43.74951],[-79.27307,43.7499]]}},{"type":"Feature","properties":{"role":"e","street":"Lawrence Ave E"},"geometry":{"type":"LineString","coordinates":[[-79.27307,43.7499],[-79.27252,43.75001]]}},{"type":"Feature","properties":{"role":"e","street":"Lawrence Ave E"},"geometry":{"type":"LineString","coordinates":[[-79.27307,43.7499],[-79.27314,43.75023],[-79.27298,43.75033],[-79.27229,43.75037],[-79.27121,43.75058],[-79.27099,43.75051],[-79.27091,43.75034]]}},{"type":"Feature","properties":{"role":"e","street":"Lawrence Ave E"},"geometry":{"type":"LineString","coordinates":[[-79.27252,43.75001],[-79.27091,43.75034]]}},{"type":"Feature","properties":{"role":"e","street":"Lawrence Ave E"},"geometry":{"type":"LineString","coordinates":[[-79.27252,43.75001],[-79.27242,43.74977],[-79.27225,43.74967],[-79.27149,43.74984],[-79.27104,43.74997],[-79.2709,43.75005],[-79.27086,43.75017],[-79.27091,43.75034]]}},{"type":"Feature","properties":{"role":"e","street":"Lawrence Ave E"},"geometry":{"type":"LineString","coordinates":[[-79.27091,43.75034],[-79.26975,43.75058]]}},{"type":"Feature","properties":{"role":"e","street":"Lawrence Ave E"},"geometry":{"type":"LineString","coordinates":[[-79.26975,43.75058],[-79.26713,43.75111]]}},{"type":"Feature","properties":{"role":"e","street":"Lawrence Ave E"},"geometry":{"type":"LineString","coordinates":[[-79.26975,43.75058],[-79.26978,43.75081],[-79.26959,43.7509],[-79.26735,43.75135],[-79.26723,43.75131],[-79.26713,43.75111]]}},{"type":"Feature","properties":{"role":"e","street":"Lawrence Ave E"},"geometry":{"type":"LineString","coordinates":[[-79.26975,43.75058],[-79.26964,43.75038],[-79.2695,43.75034],[-79.26813,43.75061],[-79.26716,43.75082],[-79.2671,43.75091],[-79.26713,43.75111]]}},{"type":"Feature","properties":{"role":"e","street":"Lawrence Ave E"},"geometry":{"type":"LineString","coordinates":[[-79.26713,43.75111],[-79.26505,43.75152],[-79.26246,43.75207],[-79.25987,43.75259],[-79.25853,43.75287],[-79.25664,43.75324],[-79.25537,43.75353],[-79.25156,43.75428],[-79.25093,43.75442],[-79.24676,43.75526],[-79.24542,43.75555],[-79.24323,43.756],[-79.24132,43.75642],[-79.24019,43.75666],[-79.23821,43.7571],[-79.23527,43.75772],[-79.23308,43.75818],[-79.22532,43.75982],[-79.22298,43.76031],[-79.21977,43.76101],[-79.21584,43.76185],[-79.21393,43.76226],[-79.21105,43.76287],[-79.20884,43.76335],[-79.20709,43.76372],[-79.20563,43.76405],[-79.20206,43.76487],[-79.20159,43.76497],[-79.19947,43.76545],[-79.19489,43.7665],[-79.19169,43.7672],[-79.18961,43.76765],[-79.18623,43.76841]]}},{"type":"Feature","properties":{"role":"e","street":"Lawrence Ave E"},"geometry":{"type":"LineString","coordinates":[[-79.36495,43.73349],[-79.3619,43.73416],[-79.35939,43.73469],[-79.35903,43.73478],[-79.35723,43.73455],[-79.35596,43.73454]]}},{"type":"Feature","properties":{"role":"e","street":"Lawrence Ave E"},"geometry":{"type":"LineString","coordinates":[[-79.18623,43.76841],[-79.18284,43.76917],[-79.18098,43.76958],[-79.17628,43.77065],[-79.17508,43.77091],[-79.17323,43.77133],[-79.17176,43.77165],[-79.16888,43.7723],[-79.16721,43.77269],[-79.16634,43.77288],[-79.16553,43.77307],[-79.16392,43.77343],[-79.16186,43.77388],[-79.1579,43.7748],[-79.15755,43.77489],[-79.15639,43.77514],[-79.15276,43.77597],[-79.14913,43.77677],[-79.14656,43.77736],[-79.14347,43.77805],[-79.14082,43.77865],[-79.13668,43.7796]]}},{"type":"Feature","properties":{"role":"e","street":"Lawrence Ave E"},"geometry":{"type":"LineString","coordinates":[[-79.37211,43.73199],[-79.36854,43.73274],[-79.36507,43.73347]]}},{"type":"Feature","properties":{"role":"e","street":"Lawrence Ave E"},"geometry":{"type":"LineString","coordinates":[[-79.13656,43.77963],[-79.13292,43.78042],[-79.13162,43.7807],[-79.13012,43.78104],[-79.12993,43.78111],[-79.12972,43.78125],[-79.12831,43.78277],[-79.12767,43.78344],[-79.12505,43.78626],[-79.1231,43.78838]]}},{"type":"Feature","properties":{"role":"w","street":"Lawrence Ave W"},"geometry":{"type":"LineString","coordinates":[[-79.4022,43.7251],[-79.40358,43.72482],[-79.40561,43.72439],[-79.40875,43.72372],[-79.41123,43.7232],[-79.41209,43.72303],[-79.41561,43.72226],[-79.41675,43.72203],[-79.42141,43.72104],[-79.42245,43.72083],[-79.42438,43.7204],[-79.42639,43.71999],[-79.42672,43.71991],[-79.42976,43.71928],[-79.43297,43.71849],[-79.43763,43.71751],[-79.43834,43.71735],[-79.44322,43.71632],[-79.4465,43.71562],[-79.44836,43.71522],[-79.44947,43.71497],[-79.45239,43.71435],[-79.45357,43.71417],[-79.45475,43.71409],[-79.45854,43.71329],[-79.46084,43.71276],[-79.46204,43.7125],[-79.46659,43.71149],[-79.46977,43.71078],[-79.47661,43.70927],[-79.4779,43.70878],[-79.47806,43.70866],[-79.47893,43.70834],[-79.48244,43.70754],[-79.48767,43.70637],[-79.49019,43.7058],[-79.49174,43.70548],[-79.4941,43.70495],[-79.49555,43.70461],[-79.49881,43.70388],[-79.50008,43.70361],[-79.50195,43.70318],[-79.50268,43.70302],[-79.50384,43.70288],[-79.50499,43.70277],[-79.50704,43.70228],[-79.50831,43.70199],[-79.51212,43.70109],[-79.51396,43.70066],[-79.51532,43.70035],[-79.5162,43.70016],[-79.51983,43.69928],[-79.52216,43.69851],[-79.52329,43.69818]]}},{"type":"Feature","properties":{"role":"w","street":"Lawrence Ave W"},"geometry":{"type":"LineString","coordinates":[[-79.52329,43.69818],[-79.52488,43.69782],[-79.52856,43.69705],[-79.52966,43.69681],[-79.53274,43.69616]]}},{"type":"Feature","properties":{"role":"e","street":"Manor Rd E"},"geometry":{"type":"LineString","coordinates":[[-79.39735,43.70254],[-79.3969,43.7026],[-79.39406,43.70319],[-79.39342,43.70331],[-79.39126,43.70377],[-79.39072,43.70386],[-79.38965,43.70409],[-79.38867,43.70428]]}},{"type":"Feature","properties":{"role":"e","street":"Manor Rd E"},"geometry":{"type":"LineString","coordinates":[[-79.38843,43.70433],[-79.38623,43.70478],[-79.38137,43.70577],[-79.37906,43.70625],[-79.37791,43.70646],[-79.37574,43.70692]]}},{"type":"Feature","properties":{"role":"e","street":"Queen St E"},"geometry":{"type":"LineString","coordinates":[[-79.37926,43.65244],[-79.37691,43.65292],[-79.37575,43.65317],[-79.37428,43.65348],[-79.37322,43.65372],[-79.36946,43.65453],[-79.36793,43.65485],[-79.36576,43.65534],[-79.36444,43.6556],[-79.36322,43.65587],[-79.35957,43.65669],[-79.35652,43.65736],[-79.35496,43.65774],[-79.35482,43.65777],[-79.35334,43.65808],[-79.35222,43.65833],[-79.35155,43.65849],[-79.34983,43.65887]]}},{"type":"Feature","properties":{"role":"e","street":"Queen St E"},"geometry":{"type":"LineString","coordinates":[[-79.34983,43.65887],[-79.34847,43.65918],[-79.34742,43.65941],[-79.34607,43.65972],[-79.34563,43.65981],[-79.34446,43.66009],[-79.34358,43.66028],[-79.34082,43.66089],[-79.34008,43.66106],[-79.3377,43.66158],[-79.33488,43.66222],[-79.3343,43.66234],[-79.33226,43.6628],[-79.3302,43.66325],[-79.32735,43.66391],[-79.32396,43.66467],[-79.32237,43.66503],[-79.32127,43.66527],[-79.32,43.66556],[-79.31912,43.66578],[-79.31766,43.66609],[-79.31656,43.66634],[-79.31485,43.66672],[-79.31259,43.66724],[-79.31213,43.66735],[-79.31034,43.66773],[-79.30805,43.66825],[-79.30578,43.66876],[-79.30464,43.669],[-79.30224,43.66956],[-79.30191,43.66962],[-79.29983,43.67007],[-79.29891,43.67028],[-79.29686,43.67073],[-79.29447,43.67123],[-79.29257,43.67161],[-79.29101,43.67194],[-79.28877,43.6724],[-79.28759,43.67265],[-79.28633,43.6729],[-79.28308,43.67358],[-79.28122,43.67395],[-79.28021,43.67427]]}},{"type":"Feature","properties":{"role":"e","street":"Queen St E"},"geometry":{"type":"LineString","coordinates":[[-79.2801,43.67431],[-79.27875,43.67477],[-79.2784,43.67492],[-79.2775,43.67514],[-79.27642,43.67538]]}},{"type":"Feature","properties":{"role":"w","street":"Queen St W"},"geometry":{"type":"LineString","coordinates":[[-79.37926,43.65244],[-79.3807,43.6521],[-79.38172,43.65189],[-79.38246,43.65173],[-79.38491,43.65121],[-79.38663,43.65085],[-79.38745,43.65065],[-79.3886,43.6504],[-79.39211,43.64965],[-79.39366,43.64934],[-79.39637,43.64874],[-79.39966,43.64807],[-79.4006,43.64789],[-79.40142,43.64771],[-79.40202,43.6476],[-79.40401,43.64719],[-79.4052,43.64696],[-79.40732,43.64653],[-79.4077,43.64646],[-79.40956,43.64608],[-79.41077,43.64582],[-79.41319,43.64534],[-79.41504,43.64495],[-79.41747,43.64446],[-79.41886,43.64416],[-79.4194,43.64405],[-79.42,43.64396],[-79.42179,43.64359],[-79.42438,43.6431],[-79.42477,43.643],[-79.42595,43.64275],[-79.42821,43.64231],[-79.42861,43.64222],[-79.43158,43.64162],[-79.43235,43.64147],[-79.43667,43.64058],[-79.43728,43.64045],[-79.4379,43.64034],[-79.43909,43.6401],[-79.44115,43.6397],[-79.44249,43.63943],[-79.44383,43.63918],[-79.4461,43.63874]]}},{"type":"Feature","properties":{"role":"e","street":"Queens Quay E"},"geometry":{"type":"LineString","coordinates":[[-79.37466,43.64194],[-79.37304,43.64249],[-79.3715,43.64303],[-79.37031,43.64346],[-79.36896,43.64393],[-79.36782,43.64434],[-79.36542,43.64518],[-79.36433,43.64556],[-79.36196,43.64643]]}},{"type":"Feature","properties":{"role":"w","street":"Queens Quay W"},"geometry":{"type":"LineString","coordinates":[[-79.37466,43.64194],[-79.37684,43.64115],[-79.38004,43.64003],[-79.38044,43.63989],[-79.38272,43.63951],[-79.38546,43.63903],[-79.38657,43.63885],[-79.38684,43.63883],[-79.39188,43.6377],[-79.39321,43.63746],[-79.39432,43.63731],[-79.3953,43.63711],[-79.39671,43.63668],[-79.39737,43.63642],[-79.39834,43.63571]]}},{"type":"Feature","properties":{"role":"w","street":"Queens Quay W"},"geometry":{"type":"LineString","coordinates":[[-79.39848,43.63564],[-79.39876,43.6355],[-79.40061,43.63451]]}},{"type":"Feature","properties":{"role":"e","street":"Richmond St E"},"geometry":{"type":"LineString","coordinates":[[-79.37896,43.6517],[-79.37637,43.65226],[-79.37545,43.65245],[-79.3737,43.65286],[-79.37334,43.65281],[-79.37283,43.6527],[-79.37237,43.65266],[-79.37157,43.65283],[-79.36912,43.65338],[-79.3667,43.65393],[-79.3653,43.65427],[-79.364,43.65456],[-79.3617,43.65512],[-79.36102,43.65522],[-79.36029,43.65523],[-79.35918,43.65509],[-79.35842,43.65499],[-79.35784,43.65496],[-79.3573,43.655],[-79.35585,43.65536]]}},{"type":"Feature","properties":{"role":"w","street":"Richmond St W"},"geometry":{"type":"LineString","coordinates":[[-79.37896,43.6517],[-79.38133,43.65117],[-79.38267,43.65087],[-79.3846,43.65045],[-79.38629,43.65009],[-79.38769,43.64979],[-79.38916,43.64946],[-79.39204,43.64884],[-79.3926,43.64871],[-79.39328,43.64839],[-79.39597,43.64781],[-79.39665,43.64787],[-79.39937,43.64733],[-79.39984,43.64722],[-79.40061,43.64708],[-79.40221,43.64677],[-79.40317,43.64656],[-79.40372,43.64646]]}},{"type":"Feature","properties":{"role":"e","street":"Roxborough St E"},"geometry":{"type":"LineString","coordinates":[[-79.38976,43.67787],[-79.38882,43.67808],[-79.38654,43.67855],[-79.38307,43.67929],[-79.38232,43.67943],[-79.38155,43.6795],[-79.38145,43.67953]]}},{"type":"Feature","properties":{"role":"e","street":"Sheppard Ave E"},"geometry":{"type":"LineString","coordinates":[[-79.41094,43.76151],[-79.40826,43.7621],[-79.40717,43.76233],[-79.40476,43.76289],[-79.40287,43.7633],[-79.40231,43.76343],[-79.39969,43.764],[-79.3947,43.7651],[-79.39313,43.76546],[-79.39004,43.76613],[-79.38806,43.76659],[-79.3868,43.76701],[-79.38612,43.76717],[-79.38314,43.7678],[-79.37746,43.76903],[-79.37566,43.7694],[-79.3742,43.76971],[-79.37134,43.77034],[-79.36749,43.77119],[-79.36607,43.77146],[-79.36555,43.77152],[-79.36418,43.77165],[-79.36294,43.77177],[-79.36155,43.77194],[-79.35867,43.77257],[-79.35332,43.77373],[-79.34704,43.77511],[-79.34372,43.77583],[-79.34223,43.77614],[-79.34135,43.77621],[-79.34111,43.77619],[-79.33963,43.77604],[-79.33775,43.77583],[-79.33383,43.7754],[-79.3288,43.77482],[-79.32772,43.7747],[-79.32673,43.77466],[-79.32606,43.77469],[-79.32455,43.77491],[-79.32302,43.77524],[-79.32044,43.77587],[-79.32031,43.77591],[-79.31776,43.77651],[-79.31623,43.77686],[-79.31478,43.77718],[-79.31121,43.77799],[-79.31114,43.778],[-79.30791,43.77873],[-79.3004,43.78051],[-79.29811,43.78105],[-79.29346,43.78212],[-79.28826,43.78329],[-79.28536,43.78393],[-79.28334,43.78435],[-79.28193,43.78466],[-79.28152,43.78474],[-79.27857,43.78535],[-79.27605,43.78593],[-79.27339,43.78653],[-79.2705,43.78713],[-79.2693,43.78739],[-79.26833,43.78759],[-79.26248,43.78886],[-79.25884,43.78962],[-79.2557,43.7903],[-79.24851,43.79184],[-79.24521,43.79253],[-79.23875,43.79387],[-79.23495,43.79466],[-79.23236,43.79518],[-79.2303,43.79561],[-79.22916,43.79584],[-79.22754,43.79615],[-79.21767,43.79812],[-79.21289,43.79918],[-79.2069,43.80048],[-79.20505,43.80087],[-79.19977,43.80197],[-79.19489,43.80309],[-79.19254,43.80361],[-79.19008,43.80419],[-79.18661,43.80498],[-79.18355,43.80561],[-79.17852,43.80669],[-79.1739,43.8077],[-79.17081,43.80838]]}},{"type":"Feature","properties":{"role":"e","street":"Sheppard Ave E"},"geometry":{"type":"LineString","coordinates":[[-79.17081,43.80838],[-79.16759,43.8091],[-79.16694,43.80915],[-79.16623,43.80906],[-79.1655,43.8088],[-79.16291,43.80728],[-79.16202,43.80677],[-79.16088,43.8061],[-79.15836,43.80465],[-79.15752,43.80416],[-79.15571,43.80308],[-79.15472,43.80257],[-79.15177,43.80137],[-79.1506,43.80091],[-79.14782,43.79977],[-79.1466,43.79923],[-79.14622,43.79892]]}},{"type":"Feature","properties":{"role":"w","street":"Sheppard Ave W"},"geometry":{"type":"LineString","coordinates":[[-79.41094,43.76151],[-79.41316,43.76103],[-79.41551,43.76052],[-79.41636,43.76032],[-79.41792,43.75998],[-79.42032,43.75944],[-79.42108,43.75926],[-79.42256,43.75895],[-79.42339,43.75874],[-79.42591,43.75818],[-79.43001,43.75725],[-79.43086,43.75707],[-79.43283,43.75663],[-79.43699,43.75569],[-79.43791,43.7555],[-79.43846,43.75546],[-79.43908,43.75541],[-79.4414,43.75494],[-79.44342,43.75449],[-79.44577,43.75401],[-79.4484,43.75345],[-79.45019,43.75305],[-79.45192,43.75269],[-79.45477,43.75209],[-79.45675,43.75166],[-79.458,43.75139],[-79.45948,43.75106],[-79.46339,43.75025],[-79.4643,43.75011],[-79.46498,43.75021],[-79.46572,43.75051],[-79.46722,43.75192],[-79.46886,43.75348],[-79.46966,43.75403],[-79.4699,43.75418],[-79.47297,43.75538],[-79.47377,43.75552],[-79.47426,43.75553],[-79.47489,43.7555],[-79.47589,43.75531],[-79.48025,43.75432],[-79.48116,43.75408],[-79.48171,43.75383],[-79.48208,43.75358],[-79.48229,43.75338],[-79.4827,43.75284],[-79.48281,43.75257],[-79.48288,43.75213],[-79.48279,43.74977],[-79.4827,43.74718],[-79.48282,43.74667],[-79.48317,43.74608],[-79.48375,43.74557],[-79.48423,43.74531],[-79.48492,43.74505],[-79.48645,43.74478],[-79.48716,43.74468],[-79.49181,43.74366],[-79.49255,43.74348],[-79.49424,43.74311],[-79.49648,43.74263],[-79.49702,43.74252],[-79.5015,43.7415],[-79.5034,43.74108],[-79.50689,43.74032],[-79.50968,43.73967],[-79.51033,43.73954],[-79.511,43.73945],[-79.51233,43.73954],[-79.51322,43.73939],[-79.5238,43.73697],[-79.52588,43.73639],[-79.52616,43.73632],[-79.52724,43.73609],[-79.52891,43.7358],[-79.52928,43.73571],[-79.53396,43.73467],[-79.53579,43.73426],[-79.53823,43.73375]]}},{"type":"Feature","properties":{"role":"e","street":"St Clair Ave E"},"geometry":{"type":"LineString","coordinates":[[-79.39408,43.6881],[-79.39338,43.68824],[-79.39265,43.68841],[-79.39149,43.68865],[-79.38995,43.68898],[-79.38916,43.68913],[-79.38698,43.68959],[-79.38333,43.69037]]}},{"type":"Feature","properties":{"role":"e","street":"St Clair Ave E"},"geometry":{"type":"LineString","coordinates":[[-79.31284,43.7054],[-79.31187,43.70562],[-79.31054,43.7059],[-79.31013,43.706],[-79.30797,43.70648],[-79.30713,43.70666],[-79.30451,43.70725],[-79.30419,43.70734],[-79.30265,43.70767],[-79.30195,43.70784],[-79.30078,43.70809],[-79.29739,43.70885],[-79.29684,43.70886]]}},{"type":"Feature","properties":{"role":"e","street":"St Clair Ave E"},"geometry":{"type":"LineString","coordinates":[[-79.29684,43.70886],[-79.29661,43.70889],[-79.29641,43.70898],[-79.29619,43.70928]]}},{"type":"Feature","properties":{"role":"e","street":"St Clair Ave E"},"geometry":{"type":"LineString","coordinates":[[-79.29684,43.70886],[-79.29599,43.70878],[-79.29495,43.70897],[-79.29193,43.70962],[-79.29093,43.70985],[-79.28961,43.71017],[-79.2885,43.71041],[-79.28721,43.7107],[-79.28362,43.71147],[-79.28246,43.71173],[-79.28172,43.71188],[-79.281,43.71205],[-79.27876,43.71258],[-79.27828,43.71268],[-79.27446,43.71355],[-79.27377,43.71368],[-79.27298,43.71379],[-79.27112,43.71416],[-79.26674,43.71526],[-79.26572,43.71552],[-79.26472,43.71579],[-79.26369,43.716],[-79.26133,43.71653],[-79.2599,43.71686]]}},{"type":"Feature","properties":{"role":"e","street":"St Clair Ave E"},"geometry":{"type":"LineString","coordinates":[[-79.2599,43.71686],[-79.25578,43.71777],[-79.25428,43.71809],[-79.2513,43.71876],[-79.24915,43.7192],[-79.24708,43.71964],[-79.24582,43.71993],[-79.2446,43.7202],[-79.24145,43.72088],[-79.24061,43.72105],[-79.23917,43.72137],[-79.23608,43.72198]]}},{"type":"Feature","properties":{"role":"e","street":"St Clair Ave E"},"geometry":{"type":"LineString","coordinates":[[-79.38321,43.6904],[-79.37959,43.69116]]}},{"type":"Feature","properties":{"role":"e","street":"St Clair Ave E"},"geometry":{"type":"LineString","coordinates":[[-79.31925,43.7043],[-79.31847,43.70448],[-79.3164,43.70493],[-79.31536,43.70514],[-79.3145,43.70506],[-79.31408,43.70512],[-79.31304,43.70535]]}},{"type":"Feature","properties":{"role":"w","street":"St Clair Ave W"},"geometry":{"type":"LineString","coordinates":[[-79.39408,43.6881],[-79.40073,43.68677],[-79.4015,43.68664],[-79.40311,43.68631],[-79.40388,43.68614],[-79.40475,43.68598],[-79.40786,43.68535],[-79.40877,43.68516],[-79.41117,43.68463],[-79.41248,43.68435],[-79.41508,43.68381],[-79.41592,43.68363],[-79.4183,43.68317],[-79.42022,43.68277],[-79.42197,43.68243],[-79.42457,43.68195],[-79.42572,43.68171],[-79.42618,43.68163],[-79.42769,43.6813],[-79.43072,43.68066],[-79.4325,43.68028],[-79.43367,43.68002],[-79.43469,43.67982],[-79.43569,43.67959],[-79.43591,43.67955],[-79.43756,43.67918],[-79.43878,43.67889],[-79.43979,43.67867],[-79.44088,43.67842],[-79.44308,43.67795],[-79.44566,43.67737],[-79.44622,43.67727],[-79.44743,43.67701],[-79.44812,43.67685],[-79.45057,43.67631],[-79.45123,43.67613],[-79.45346,43.67564],[-79.45476,43.67536],[-79.45662,43.67496],[-79.4571,43.67484],[-79.45868,43.6745],[-79.45896,43.67443],[-79.46152,43.67388],[-79.46302,43.67354],[-79.46354,43.67343],[-79.46708,43.67264],[-79.46762,43.67253],[-79.47112,43.67178],[-79.47519,43.67085],[-79.47763,43.67031],[-79.47994,43.66979],[-79.48078,43.66961],[-79.48198,43.66933],[-79.48356,43.66898],[-79.48568,43.6685],[-79.48702,43.66821],[-79.48973,43.66759],[-79.49096,43.66732],[-79.49177,43.66718],[-79.49262,43.66707],[-79.4944,43.66691],[-79.49505,43.66684],[-79.49927,43.66607]]}},{"type":"Feature","properties":{"role":"e","street":"Steeles Ave E"},"geometry":{"type":"LineString","coordinates":[[-79.42006,43.79803],[-79.41709,43.79869],[-79.41446,43.79926],[-79.41187,43.79983],[-79.40926,43.8004],[-79.40625,43.80107],[-79.39948,43.80256],[-79.39731,43.80303],[-79.39632,43.80326],[-79.39159,43.80429],[-79.38579,43.80558],[-79.38471,43.80581],[-79.3761,43.80772],[-79.37255,43.80851],[-79.37177,43.80868],[-79.36775,43.80959],[-79.36591,43.81001],[-79.36279,43.81073],[-79.36078,43.81118],[-79.3586,43.81169],[-79.35756,43.81192],[-79.35512,43.81248],[-79.35246,43.8131],[-79.35197,43.81322],[-79.34898,43.81387],[-79.34856,43.81397],[-79.34132,43.81565],[-79.3389,43.81629],[-79.33647,43.81686],[-79.33133,43.81806],[-79.32658,43.81915],[-79.32448,43.81964],[-79.32046,43.82058],[-79.31811,43.82112],[-79.31691,43.82141],[-79.31222,43.8225],[-79.30708,43.8237],[-79.30008,43.82531],[-79.29728,43.82595],[-79.29545,43.82639],[-79.29311,43.82693],[-79.28722,43.82827],[-79.28595,43.82857],[-79.2804,43.82984],[-79.2752,43.83105],[-79.27113,43.83198],[-79.26791,43.83272],[-79.26115,43.8343],[-79.25119,43.83661],[-79.24849,43.83724],[-79.24528,43.838],[-79.23945,43.83934],[-79.23685,43.83996],[-79.23222,43.84104]]}},{"type":"Feature","properties":{"role":"e","street":"Steeles Ave E"},"geometry":{"type":"LineString","coordinates":[[-79.23222,43.84104],[-79.23147,43.84126],[-79.22875,43.84188],[-79.22587,43.84253],[-79.21913,43.84402],[-79.2093,43.8462],[-79.20328,43.84753],[-79.19933,43.84851],[-79.19569,43.84934],[-79.18974,43.85079],[-79.18002,43.85317],[-79.17759,43.85379],[-79.17025,43.85545]]}},{"type":"Feature","properties":{"role":"w","street":"Steeles Ave W"},"geometry":{"type":"LineString","coordinates":[[-79.42006,43.79803],[-79.42639,43.79666],[-79.42927,43.79604],[-79.43656,43.79441],[-79.43838,43.79402],[-79.44103,43.79344],[-79.44573,43.79246],[-79.44757,43.79206],[-79.45303,43.79086],[-79.45582,43.79024],[-79.45984,43.78938],[-79.46014,43.78932],[-79.4632,43.78867],[-79.46591,43.78811],[-79.46847,43.78759],[-79.47011,43.78727],[-79.47474,43.78618],[-79.48101,43.78471],[-79.48446,43.78389],[-79.48727,43.78324],[-79.4901,43.78257],[-79.4945,43.78154],[-79.49876,43.78053],[-79.50169,43.77985],[-79.50896,43.77819],[-79.511,43.77774],[-79.51701,43.77636],[-79.51718,43.77637],[-79.52174,43.77547],[-79.52301,43.77511],[-79.52685,43.77432],[-79.52978,43.77374],[-79.53176,43.77334],[-79.53441,43.77278],[-79.53781,43.77211],[-79.54065,43.77153],[-79.54339,43.77094],[-79.54652,43.77031],[-79.54958,43.76969],[-79.55218,43.76914],[-79.55499,43.76857],[-79.5578,43.76798],[-79.56056,43.76741],[-79.56479,43.76656],[-79.56903,43.76562],[-79.571,43.76519],[-79.57112,43.76517],[-79.57487,43.76434],[-79.57754,43.7637],[-79.57851,43.76328],[-79.57978,43.76242],[-79.58083,43.76161],[-79.58153,43.76117],[-79.58241,43.76076],[-79.58353,43.76037],[-79.58366,43.76036],[-79.58487,43.76015],[-79.58612,43.7601],[-79.58802,43.75998],[-79.58988,43.7596],[-79.59116,43.75935],[-79.59187,43.7593],[-79.59275,43.75937],[-79.59445,43.75958],[-79.59564,43.75956],[-79.59607,43.75949],[-79.59701,43.75928],[-79.6034,43.75787],[-79.60812,43.7568],[-79.61406,43.75548],[-79.61422,43.75544],[-79.61984,43.75419],[-79.62952,43.75201],[-79.63014,43.75186],[-79.63113,43.75164],[-79.63255,43.75136],[-79.63277,43.75133],[-79.63387,43.75127],[-79.63471,43.75124],[-79.63584,43.75115],[-79.63704,43.75087],[-79.63771,43.75062],[-79.63926,43.74985]]}},{"type":"Feature","properties":{"role":"e","street":"Wellesley St E"},"geometry":{"type":"LineString","coordinates":[[-79.38456,43.66493],[-79.38337,43.66519],[-79.38139,43.6656],[-79.38093,43.66571],[-79.37833,43.66628],[-79.37719,43.66652],[-79.3765,43.66643],[-79.37585,43.66649],[-79.37535,43.66667],[-79.37467,43.66707],[-79.37375,43.66727],[-79.37091,43.6679],[-79.36955,43.66818]]}},{"type":"Feature","properties":{"role":"w","street":"Wellesley St W"},"geometry":{"type":"LineString","coordinates":[[-79.38456,43.66493],[-79.38718,43.66437],[-79.39061,43.66359],[-79.39274,43.66313],[-79.3932,43.66308]]}},{"type":"Feature","properties":{"role":"e","street":"Wellington St E"},"geometry":{"type":"LineString","coordinates":[[-79.37734,43.64783],[-79.3746,43.64844],[-79.37383,43.6486]]}},{"type":"Feature","properties":{"role":"w","street":"Wellington St W"},"geometry":{"type":"LineString","coordinates":[[-79.37734,43.64783],[-79.37787,43.64771],[-79.37971,43.64733],[-79.38302,43.64661],[-79.3841,43.64638],[-79.38553,43.64606],[-79.38919,43.64528]]}},{"type":"Feature","properties":{"role":"w","street":"Wellington St W"},"geometry":{"type":"LineString","coordinates":[[-79.40227,43.64262],[-79.40474,43.64211],[-79.40612,43.64184],[-79.40735,43.6416],[-79.41024,43.64102],[-79.41135,43.64079]]}},{"type":"Feature","properties":{"role":"w","street":"Wellington St W"},"geometry":{"type":"LineString","coordinates":[[-79.39456,43.64401],[-79.39505,43.64392],[-79.39935,43.64304],[-79.39952,43.6431],[-79.39964,43.64317],[-79.40102,43.6429],[-79.40203,43.64267]]}},{"type":"Feature","properties":{"role":"w","street":"Wellington St W"},"geometry":{"type":"LineString","coordinates":[[-79.38931,43.64526],[-79.39053,43.64501],[-79.39177,43.64472],[-79.39313,43.64443]]}}]}