{"asof":"2026-10-10","week":"2026-10-12","feeds":{"go":{"asof":"2026-10-10","week":"2026-10-12","routes":37,"in":21}},"type":"FeatureCollection","features":[{"type":"Feature","properties":{"r":"501","n":"Queen","m":"tram","f":["freq"],"day":true,"h":10},"geometry":{"type":"MultiLineString","coordinates":[[[-79.4787,43.63097],[-79.47868,43.63083],[-79.47848,43.63075],[-79.4783,43.63091],[-79.47848,43.63129],[-79.47822,43.632],[-79.47662,43.6326],[-79.47527,43.63372],[-79.4731,43.63586],[-79.47192,43.6366],[-79.47053,43.63711],[-79.46616,43.63784],[-79.46117,43.63927],[-79.45805,43.63966],[-79.45283,43.63971],[-79.44757,43.63862],[-79.44671,43.63861],[-79.40141,43.64771],[-79.38496,43.65122],[-79.38411,43.64919],[-79.37495,43.65118],[-79.37577,43.65317],[-79.35892,43.65683],[-79.30223,43.66956],[-79.28239,43.67372],[-79.28183,43.67383],[-79.28133,43.67369]],[[-79.37588,43.65238],[-79.38424,43.65053]]]}},{"type":"Feature","properties":{"r":"503","n":"Kingston Rd","m":"tram","f":["freq"],"day":true,"h":9},"geometry":{"type":"MultiLineString","coordinates":[[[-79.38358,43.64792],[-79.38465,43.65044],[-79.38629,43.65009],[-79.38481,43.64766],[-79.36441,43.65212],[-79.35616,43.65687],[-79.35496,43.65774],[-79.31259,43.66724],[-79.31006,43.67198],[-79.30561,43.67596],[-79.30451,43.67674],[-79.30048,43.67841],[-79.29304,43.68005],[-79.28406,43.68081],[-79.28438,43.6816],[-79.28536,43.6814]]]}},{"type":"Feature","properties":{"r":"504","n":"King","m":"tram","f":["freq"],"day":true,"h":5},"geometry":{"type":"MultiLineString","coordinates":[[[-79.45358,43.65671],[-79.45384,43.6568],[-79.45392,43.65703],[-79.45271,43.65729],[-79.45139,43.65235],[-79.44622,43.63904],[-79.44622,43.63871],[-79.44256,43.63719],[-79.44134,43.63654],[-79.43975,43.63643],[-79.42775,43.63884]],[[-79.42649,43.63429],[-79.42564,43.63448],[-79.42737,43.63896],[-79.39364,43.64576],[-79.36424,43.65216],[-79.35616,43.65687],[-79.35496,43.65774],[-79.34985,43.65888],[-79.35343,43.66742],[-79.35309,43.66847],[-79.35303,43.66945],[-79.35438,43.671],[-79.35493,43.67201],[-79.35887,43.6762],[-79.35894,43.6764],[-79.35884,43.67677],[-79.35812,43.67715]],[[-79.3584,43.6551],[-79.35865,43.65438],[-79.35862,43.65411],[-79.35776,43.65214],[-79.35739,43.65175],[-79.35686,43.6505],[-79.35668,43.65039],[-79.35642,43.65054],[-79.35663,43.65074]]]}},{"type":"Feature","properties":{"r":"505","n":"Dundas","m":"tram","f":["freq"],"day":true,"h":6},"geometry":{"type":"MultiLineString","coordinates":[[[-79.45367,43.65675],[-79.45379,43.65678],[-79.45385,43.65704],[-79.4527,43.65728],[-79.45183,43.65388],[-79.45157,43.65371],[-79.4468,43.65158],[-79.44205,43.65044],[-79.43972,43.65016],[-79.43247,43.64969],[-79.42077,43.64933],[-79.40601,43.6523],[-79.40535,43.65236],[-79.40373,43.65173],[-79.39145,43.65433],[-79.3883,43.65478],[-79.38035,43.65645],[-79.37887,43.65614],[-79.37713,43.65649],[-79.37345,43.6573],[-79.37274,43.65797],[-79.37213,43.65825],[-79.37102,43.65829],[-79.35638,43.66162],[-79.35388,43.66191],[-79.35135,43.66246],[-79.35341,43.66741],[-79.35302,43.6688],[-79.35302,43.66944],[-79.35437,43.67099],[-79.35492,43.672],[-79.35886,43.67619],[-79.35883,43.67677],[-79.35796,43.67719]]]}},{"type":"Feature","properties":{"r":"506","n":"Carlton","m":"tram","f":["freq"],"day":true,"h":5},"geometry":{"type":"MultiLineString","coordinates":[[[-79.45813,43.64781],[-79.45777,43.64787],[-79.45788,43.64844],[-79.457,43.64971],[-79.45503,43.6507],[-79.44809,43.65212],[-79.44681,43.65159],[-79.44532,43.6512],[-79.44102,43.65028],[-79.44,43.65101],[-79.43879,43.65133],[-79.43081,43.6529],[-79.42988,43.65287],[-79.41971,43.65504],[-79.41809,43.65526],[-79.41518,43.65495],[-79.40047,43.65793]],[[-79.40357,43.6675],[-79.40338,43.66736],[-79.40408,43.66719],[-79.40387,43.66666],[-79.40312,43.66551],[-79.40103,43.66037],[-79.40149,43.66005],[-79.40162,43.65949],[-79.40116,43.65914],[-79.40047,43.65897],[-79.40005,43.65795],[-79.3959,43.6587],[-79.38311,43.66137],[-79.38168,43.66139],[-79.36798,43.66428],[-79.36704,43.66195],[-79.35963,43.66358],[-79.35518,43.66481],[-79.35545,43.66548],[-79.35291,43.66616],[-79.35262,43.66549]],[[-79.4002,43.65926],[-79.39996,43.65951],[-79.39992,43.6598],[-79.40025,43.66018],[-79.40064,43.66028]],[[-79.37952,43.66225],[-79.38096,43.66572],[-79.38718,43.66437],[-79.38613,43.66179],[-79.38599,43.66118]],[[-79.38569,43.66042],[-79.38377,43.65572],[-79.38037,43.65646],[-79.37888,43.65615],[-79.37346,43.6573],[-79.37275,43.65797],[-79.37214,43.65825],[-79.37103,43.65829],[-79.36602,43.65944],[-79.36689,43.66157]],[[-79.3548,43.66492],[-79.35302,43.66541]],[[-79.35222,43.66554],[-79.31931,43.67291],[-79.3203,43.67534],[-79.31955,43.6757],[-79.31735,43.67604],[-79.31678,43.67627],[-79.31563,43.67728],[-79.31513,43.67799],[-79.31191,43.68038],[-79.31075,43.68079],[-79.30812,43.68209],[-79.30547,43.68281],[-79.30016,43.68395],[-79.30039,43.68482],[-79.30227,43.68908],[-79.30129,43.68932],[-79.30101,43.68916],[-79.30113,43.68898],[-79.30182,43.6888]]]}},{"type":"Feature","properties":{"r":"507","n":"Long Branch","m":"tram","f":["freq"],"day":true,"h":6},"geometry":{"type":"MultiLineString","coordinates":[[[-79.5436,43.59213],[-79.54389,43.592],[-79.54391,43.59184],[-79.5437,43.59179],[-79.54242,43.59245],[-79.525,43.59642],[-79.4985,43.60226],[-79.49573,43.60259],[-79.49279,43.60383],[-79.49163,43.60471],[-79.49073,43.60624],[-79.49056,43.60674],[-79.49027,43.60967],[-79.48971,43.61301],[-79.48647,43.61893],[-79.48604,43.6195],[-79.48567,43.61977],[-79.48392,43.62023],[-79.48308,43.62064],[-79.48248,43.6212],[-79.48121,43.62297],[-79.48369,43.62401],[-79.49036,43.62905],[-79.48087,43.6311],[-79.47887,43.63119]],[[-79.481,43.62331],[-79.47938,43.6265],[-79.47858,43.62852],[-79.47806,43.62923],[-79.47691,43.63027],[-79.47593,43.62981],[-79.47569,43.62924],[-79.47635,43.62791],[-79.47699,43.62616]],[[-79.47711,43.62578],[-79.4775,43.62466],[-79.47854,43.62298],[-79.4788,43.62275],[-79.4792,43.62258],[-79.47999,43.62253],[-79.48083,43.62285]],[[-79.47855,43.63142],[-79.47851,43.63171],[-79.47871,43.63175],[-79.47962,43.63156]]]}},{"type":"Feature","properties":{"r":"508","n":"Lake Shore","m":"tram","f":["reg"],"day":true,"h":null},"geometry":{"type":"MultiLineString","coordinates":[[[-79.4787,43.63097],[-79.47868,43.63083],[-79.47848,43.63075],[-79.4783,43.63091],[-79.47848,43.63129],[-79.47822,43.632],[-79.47662,43.6326],[-79.47527,43.63372],[-79.47292,43.63601],[-79.47168,43.63672],[-79.47053,43.63711],[-79.46616,43.63784],[-79.46075,43.63934],[-79.45805,43.63966],[-79.45259,43.6397],[-79.45131,43.63934],[-79.44757,43.63862],[-79.44622,43.63871],[-79.44256,43.63719],[-79.44134,43.63654],[-79.4399,43.63641],[-79.39364,43.64576],[-79.36441,43.65212],[-79.35841,43.65558],[-79.3584,43.65501],[-79.35865,43.65438],[-79.35862,43.65411],[-79.35776,43.65214],[-79.35732,43.65163],[-79.35686,43.6505],[-79.35668,43.65039],[-79.35647,43.65045],[-79.35646,43.65064],[-79.35681,43.65081]]]}},{"type":"Feature","properties":{"r":"509","n":"Harbourfront","m":"tram","f":["freq"],"day":true,"h":9},"geometry":{"type":"MultiLineString","coordinates":[[[-79.41801,43.63565],[-79.41289,43.63702],[-79.41224,43.63695],[-79.41161,43.63655],[-79.41058,43.63627],[-79.4069,43.6364],[-79.40373,43.6359],[-79.40143,43.63613],[-79.39972,43.63663],[-79.39949,43.63634],[-79.39834,43.63564],[-79.39724,43.63649],[-79.39491,43.63723],[-79.39281,43.63746],[-79.38675,43.63883],[-79.3804,43.6399],[-79.37684,43.64115],[-79.37746,43.64208],[-79.37897,43.64564],[-79.37912,43.6456]]]}},{"type":"Feature","properties":{"r":"510","n":"Spadina","m":"tram","f":["freq"],"day":true,"h":6},"geometry":{"type":"MultiLineString","coordinates":[[[-79.40313,43.66734],[-79.40386,43.66719],[-79.40395,43.66698],[-79.40312,43.66551],[-79.40103,43.66037],[-79.40149,43.66005],[-79.40162,43.65949],[-79.40116,43.65914],[-79.40047,43.65897],[-79.39189,43.63765],[-79.38675,43.63883],[-79.3804,43.6399],[-79.37684,43.64115],[-79.37746,43.64208],[-79.37897,43.64564],[-79.37912,43.6456]],[[-79.4002,43.65926],[-79.39996,43.65951],[-79.39995,43.65989],[-79.40012,43.6601],[-79.40064,43.66029]]]}},{"type":"Feature","properties":{"r":"511","n":"Bathurst","m":"tram","f":["freq"],"day":true,"h":6},"geometry":{"type":"MultiLineString","coordinates":[[[-79.41131,43.66651],[-79.41131,43.66676],[-79.41145,43.66687],[-79.41186,43.66679],[-79.39972,43.63663],[-79.40143,43.63613],[-79.40373,43.6359],[-79.4069,43.6364],[-79.41058,43.63627],[-79.41161,43.63655],[-79.41224,43.63695],[-79.41339,43.63724],[-79.41819,43.63591],[-79.41838,43.63576],[-79.41827,43.63564],[-79.41801,43.63565],[-79.41376,43.63685]]]}},{"type":"Feature","properties":{"r":"512","n":"St Clair","m":"tram","f":["freq"],"day":true,"h":4},"geometry":{"type":"MultiLineString","coordinates":[[[-79.47186,43.67182],[-79.47166,43.67166],[-79.45153,43.67609]],[[-79.45102,43.67581],[-79.45114,43.67618],[-79.42618,43.68163],[-79.41533,43.68375],[-79.41573,43.68425],[-79.41576,43.68465],[-79.41529,43.68473],[-79.41515,43.68465],[-79.41515,43.68379],[-79.39338,43.68824],[-79.39314,43.68818],[-79.39273,43.68776],[-79.39152,43.68802]],[[-79.45044,43.67592],[-79.44909,43.67266],[-79.44856,43.67241],[-79.44828,43.67135],[-79.44646,43.66672],[-79.45125,43.66575],[-79.44777,43.6573],[-79.44273,43.65834],[-79.44304,43.65922]],[[-79.44319,43.65959],[-79.44422,43.66215],[-79.44499,43.66295],[-79.44632,43.66635]],[[-79.39142,43.68841],[-79.39149,43.68865],[-79.39279,43.68839]]]}}]}