{"type":"FeatureCollection","features":[{"type":"Feature","properties":{"id":"00008","name":"Yonge St. @ Sheppard Ave.","code":"100008","parent":"","loc_type":"0","routes":["19","27","67","96"],"pickup":{"0":133},"dropoff":{"0":133}},"geometry":{"type":"Point","coordinates":[-79.4111938,43.7615967]}},{"type":"Feature","properties":{"id":"00011","name":"York Mills Bus Terminal","code":"100011","parent":"","loc_type":"0","routes":["33","36","92"],"pickup":{"0":234},"dropoff":{"0":234}},"geometry":{"type":"Point","coordinates":[-79.4064636,43.745079]}},{"type":"Feature","properties":{"id":"00013","name":"Finch Bus Terminal","code":"100013","parent":"","loc_type":"0","routes":["19","27","32","67","96"],"pickup":{"0":174},"dropoff":{"0":174}},"geometry":{"type":"Point","coordinates":[-79.4150925,43.7821732]}},{"type":"Feature","properties":{"id":"00019","name":"Yorkdale Bus Terminal","code":"100019","parent":"","loc_type":"0","routes":["19","27","33","36","92","94"],"pickup":{"0":522},"dropoff":{"0":522}},"geometry":{"type":"Point","coordinates":[-79.4488754,43.7249374]}},{"type":"Feature","properties":{"id":"00020","name":"Hwy. 401 @ Keele St.","code":"100020","parent":"","loc_type":"0","routes":["19","27","33","36","94"],"pickup":{"0":223},"dropoff":{"0":223}},"geometry":{"type":"Point","coordinates":[-79.4819412,43.7232399]}},{"type":"Feature","properties":{"id":"00022","name":"Keele St. @ Hwy. 401","code":"100022","parent":"","loc_type":"0","routes":["19","27","33","36","94"],"pickup":{"0":219},"dropoff":{"0":219}},"geometry":{"type":"Point","coordinates":[-79.4808273,43.7216759]}},{"type":"Feature","properties":{"id":"00077","name":"Yonge St. @ Park Home Ave.","code":"100077","parent":"","loc_type":"0","routes":["19","27","67","96"],"pickup":{"0":133},"dropoff":{"0":133}},"geometry":{"type":"Point","coordinates":[-79.4130859,43.7694092]}},{"type":"Feature","properties":{"id":"00144","name":"University of Toronto Scarborough","code":"100144","parent":"","loc_type":"0","routes":["41"],"pickup":{"0":101},"dropoff":{"0":101}},"geometry":{"type":"Point","coordinates":[-79.1851273,43.7843628]}},{"type":"Feature","properties":{"id":"00170","name":"Kingston Rd. @ Port Union Rd.","code":"100170","parent":"","loc_type":"0","routes":["92"],"pickup":{"0":41},"dropoff":{"0":41}},"geometry":{"type":"Point","coordinates":[-79.145546,43.7991524]}},{"type":"Feature","properties":{"id":"00171","name":"Kingston Rd. @ Sheppard Ave. E.","code":"100171","parent":"","loc_type":"0","routes":["92"],"pickup":{"0":39},"dropoff":{"0":39}},"geometry":{"type":"Point","coordinates":[-79.1456985,43.7995529]}},{"type":"Feature","properties":{"id":"00299","name":"Yonge St. @ Elmhurst Ave.","code":"100299","parent":"","loc_type":"0","routes":["19","27","67","96"],"pickup":{"0":133},"dropoff":{"0":133}},"geometry":{"type":"Point","coordinates":[-79.4115524,43.7634468]}},{"type":"Feature","properties":{"id":"00300","name":"Yonge St. @ North York Blvd.","code":"100300","parent":"","loc_type":"0","routes":["19","27","67","96"],"pickup":{"0":133},"dropoff":{"0":133}},"geometry":{"type":"Point","coordinates":[-79.412468,43.7668343]}},{"type":"Feature","properties":{"id":"00358","name":"Centennial College","code":"100358","parent":"","loc_type":"0","routes":["41"],"pickup":{"0":144},"dropoff":{"0":144}},"geometry":{"type":"Point","coordinates":[-79.2290802,43.7854233]}},{"type":"Feature","properties":{"id":"00736","name":"Finch Bus Terminal","code":"100736","parent":"","loc_type":"0","routes":["19","27","67","96"],"pickup":{"0":130},"dropoff":{"0":130}},"geometry":{"type":"Point","coordinates":[-79.4159088,43.7819481]}},{"type":"Feature","properties":{"id":"01644","name":"Yonge St. @ Churchill Ave.","code":"101644","parent":"","loc_type":"0","routes":["19","27","67","96"],"pickup":{"0":133},"dropoff":{"0":133}},"geometry":{"type":"Point","coordinates":[-79.4143219,43.7741737]}},{"type":"Feature","properties":{"id":"01645","name":"Yonge St. @ Cummer Ave.","code":"101645","parent":"","loc_type":"0","routes":["32"],"pickup":{"0":18},"dropoff":{"0":18}},"geometry":{"type":"Point","coordinates":[-79.4172745,43.7875671]}},{"type":"Feature","properties":{"id":"01646","name":"Yonge St. @ Drewry Ave.","code":"101646","parent":"","loc_type":"0","routes":["32"],"pickup":{"0":22},"dropoff":{"0":22}},"geometry":{"type":"Point","coordinates":[-79.4175034,43.7871094]}},{"type":"Feature","properties":{"id":"01647","name":"Yonge St. @ Florence Ave.","code":"101647","parent":"","loc_type":"0","routes":["19","27","67","94","96"],"pickup":{"0":216},"dropoff":{"0":216}},"geometry":{"type":"Point","coordinates":[-79.4102325,43.7582703]}},{"type":"Feature","properties":{"id":"01648","name":"Yonge St. @ Glendora Ave.","code":"101648","parent":"","loc_type":"0","routes":["19","27","67","96"],"pickup":{"0":131},"dropoff":{"0":131}},"geometry":{"type":"Point","coordinates":[-79.4100418,43.7586899]}},{"type":"Feature","properties":{"id":"01650","name":"Yonge St. @ Northtown Way","code":"101650","parent":"","loc_type":"0","routes":["19","27","67","96"],"pickup":{"0":131},"dropoff":{"0":131}},"geometry":{"type":"Point","coordinates":[-79.4142609,43.7753067]}},{"type":"Feature","properties":{"id":"01651","name":"Yonge St. @ Kempford Blvd.","code":"101651","parent":"","loc_type":"0","routes":["19","27","67","96"],"pickup":{"0":133},"dropoff":{"0":133}},"geometry":{"type":"Point","coordinates":[-79.4150925,43.777153]}},{"type":"Feature","properties":{"id":"01653","name":"Yonge St. @ Elmwood Ave.","code":"101653","parent":"","loc_type":"0","routes":["19","27","67","96"],"pickup":{"0":131},"dropoff":{"0":131}},"geometry":{"type":"Point","coordinates":[-79.4120407,43.7664719]}},{"type":"Feature","properties":{"id":"01654","name":"Yonge St. @ Ellerslie Ave.","code":"101654","parent":"","loc_type":"0","routes":["19","27","67","96"],"pickup":{"0":133},"dropoff":{"0":133}},"geometry":{"type":"Point","coordinates":[-79.4139328,43.7724152]}},{"type":"Feature","properties":{"id":"01655","name":"Yonge St. @ Norton Ave.","code":"101655","parent":"","loc_type":"0","routes":["19","27","67","96"],"pickup":{"0":131},"dropoff":{"0":131}},"geometry":{"type":"Point","coordinates":[-79.4134216,43.7721901]}},{"type":"Feature","properties":{"id":"01657","name":"Yonge St. @ William Carson Cr.","code":"101657","parent":"","loc_type":"0","routes":["33","36","92"],"pickup":{"0":158},"dropoff":{"0":158}},"geometry":{"type":"Point","coordinates":[-79.4072647,43.7471085]}},{"type":"Feature","properties":{"id":"01660","name":"Yonge St. @ Empress Ave.","code":"101660","parent":"","loc_type":"0","routes":["19","27","67","96"],"pickup":{"0":131},"dropoff":{"0":131}},"geometry":{"type":"Point","coordinates":[-79.4126587,43.7691803]}},{"type":"Feature","properties":{"id":"01661","name":"Yonge St. @ Finch Ave.","code":"101661","parent":"","loc_type":"0","routes":["19","27","67","96"],"pickup":{"0":131},"dropoff":{"0":131}},"geometry":{"type":"Point","coordinates":[-79.4156036,43.7804375]}},{"type":"Feature","properties":{"id":"02208","name":"Renforth Dr. @ Convair Dr.","code":"102208","parent":"","loc_type":"0","routes":["19","40","94"],"pickup":{"0":188},"dropoff":{"0":188}},"geometry":{"type":"Point","coordinates":[-79.5930939,43.6720657]}},{"type":"Feature","properties":{"id":"02300","name":"Union Station Bus Terminal","code":"102300","parent":"","loc_type":"0","routes":["16","18","21","31","61","65","68","71","90"],"pickup":{"0":466},"dropoff":{"0":466}},"geometry":{"type":"Point","coordinates":[-79.376939,43.644042]}},{"type":"Feature","properties":{"id":"02540","name":"Morningside Ave. @ Tams Rd.","code":"102540","parent":"","loc_type":"0","routes":["41"],"pickup":{"0":49},"dropoff":{"0":49}},"geometry":{"type":"Point","coordinates":[-79.19574,43.792179]}},{"type":"Feature","properties":{"id":"02541","name":"Morningside Ave. @ Tams Rd.","code":"102541","parent":"","loc_type":"0","routes":["41"],"pickup":{"0":96},"dropoff":{"0":96}},"geometry":{"type":"Point","coordinates":[-79.195305,43.791924]}},{"type":"Feature","properties":{"id":"02650","name":"Military Trail. @ Pan Am Dr.","code":"102650","parent":"","loc_type":"0","routes":["41"],"pickup":{"0":49},"dropoff":{"0":49}},"geometry":{"type":"Point","coordinates":[-79.1908919809448,43.7878560204119]}},{"type":"Feature","properties":{"id":"02651","name":"Military Trail. @ Pan Am Dr.","code":"102651","parent":"","loc_type":"0","routes":["41"],"pickup":{"0":96},"dropoff":{"0":96}},"geometry":{"type":"Point","coordinates":[-79.1904190458541,43.7877954094493]}},{"type":"Feature","properties":{"id":"02709","name":"Yonge St. @ Finch Ave.","code":"102709","parent":"","loc_type":"0","routes":["19","27","67","96"],"pickup":{"0":133},"dropoff":{"0":133}},"geometry":{"type":"Point","coordinates":[-79.416002462366,43.7808519429722]}},{"type":"Feature","properties":{"id":"02756","name":"Consumers Rd. @ William Sylvester Dr.","code":"102756","parent":"","loc_type":"0","routes":["41"],"pickup":{"0":79},"dropoff":{"0":79}},"geometry":{"type":"Point","coordinates":[-79.33023,43.770398]}},{"type":"Feature","properties":{"id":"02757","name":"Consumers Rd. @ William Sylvester Dr.","code":"102757","parent":"","loc_type":"0","routes":["41"],"pickup":{"0":65},"dropoff":{"0":65}},"geometry":{"type":"Point","coordinates":[-79.330273,43.770562]}},{"type":"Feature","properties":{"id":"02772","name":"Yonge St. @ Sheppard Ave.","code":"102772","parent":"","loc_type":"0","routes":["19","27","67","96"],"pickup":{"0":131},"dropoff":{"0":131}},"geometry":{"type":"Point","coordinates":[-79.4109345055581,43.762187996328]}},{"type":"Feature","properties":{"id":"02778","name":"Kipling Bus Terminal","code":"102778","parent":"","loc_type":"0","routes":["29"],"pickup":{"0":63},"dropoff":{"0":63}},"geometry":{"type":"Point","coordinates":[-79.538441,43.635688]}},{"type":"Feature","properties":{"id":"02816","name":"Scarborough Centre Bus Terminal","code":"102816","parent":"","loc_type":"0","routes":["41","92","94","96"],"pickup":{"0":304},"dropoff":{"0":304}},"geometry":{"type":"Point","coordinates":[-79.26088,43.77486]}},{"type":"Feature","properties":{"id":"02821","name":"Yonge St. @ Poyntz Ave.","code":"102821","parent":"","loc_type":"0","routes":["19","27","67","94","96"],"pickup":{"0":216},"dropoff":{"0":216}},"geometry":{"type":"Point","coordinates":[-79.4107512589806,43.760053363685]}},{"type":"Feature","properties":{"id":"02837","name":"Sheppard Ave. E. @ Herons Hill Way","code":"102837","parent":"","loc_type":"0","routes":["41"],"pickup":{"0":65},"dropoff":{"0":65}},"geometry":{"type":"Point","coordinates":[-79.335555520699,43.7757323805573]}},{"type":"Feature","properties":{"id":"02838","name":"Sheppard Ave. E. @ Herons Hill Way","code":"102838","parent":"","loc_type":"0","routes":["41"],"pickup":{"0":79},"dropoff":{"0":79}},"geometry":{"type":"Point","coordinates":[-79.3354883868647,43.7754648931527]}},{"type":"Feature","properties":{"id":"02870","name":"Humber College North Campus","code":"102870","parent":"","loc_type":"0","routes":["40"],"pickup":{"0":10},"dropoff":{"0":10}},"geometry":{"type":"Point","coordinates":[-79.6039131542041,43.7298684726849]}},{"type":"Feature","properties":{"id":"02871","name":"Humber College North Campus","code":"102871","parent":"","loc_type":"0","routes":["40"],"pickup":{"0":10},"dropoff":{"0":10}},"geometry":{"type":"Point","coordinates":[-79.604534386387,43.7301182628746]}}]}