{"type":"FeatureCollection","axes":{"ns":[[41.6633,-12700],[41.67757,-11900],[41.69221,-11100],[41.70714,-10300],[41.72168,-9500],[41.73632,-8700],[41.75036,-7900],[41.76565,-7100],[41.77925,-6300],[41.79342,-5500],[41.80863,-4700],[41.82352,-3900],[41.83797,-3100],[41.85214,-2200],[41.86679,-1200],[41.88079,0],[41.89569,800],[41.91003,1600],[41.92462,2400],[41.93916,3200],[41.95398,4000],[41.96829,4800],[41.98281,5600],[41.99735,6400],[42.01204,7200]],"ew":[[-87.80661,-7200],[-87.78558,-6400],[-87.76566,-5600],[-87.74492,-4800],[-87.72421,-4000],[-87.70543,-3200],[-87.68555,-2400],[-87.66633,-1600],[-87.64518,-800],[-87.62641,0],[-87.60596,800],[-87.58617,1600],[-87.56624,2400]]},"kind":"grid","features":[{"type":"Feature","properties":{"role":"base","axis":"ns","num":0,"dir":"","street":"Madison St","label":"0"},"geometry":{"type":"LineString","coordinates":[[-87.77467,41.88079],[-87.61573,41.88079]]}},{"type":"Feature","properties":{"role":"mile","axis":"ns","num":800,"dir":"N","street":"Chicago Ave","label":"800 N"},"geometry":{"type":"LineString","coordinates":[[-87.77517,41.89569],[-87.61558,41.89569]]}},{"type":"Feature","properties":{"role":"mile","axis":"ns","num":800,"dir":"N","street":"Chicago Ave","label":"800 N"},"geometry":{"type":"LineString","coordinates":[[-87.61051,41.89569],[-87.60235,41.89569]]}},{"type":"Feature","properties":{"role":"mile","axis":"ns","num":1600,"dir":"N","street":"North Ave","label":"1600 N"},"geometry":{"type":"LineString","coordinates":[[-87.80579,41.91003],[-87.62519,41.91003]]}},{"type":"Feature","properties":{"role":"mile","axis":"ns","num":2400,"dir":"N","street":"Fullerton Ave","label":"2400 N"},"geometry":{"type":"LineString","coordinates":[[-87.80627,41.92462],[-87.72778,41.92462]]}},{"type":"Feature","properties":{"role":"mile","axis":"ns","num":2400,"dir":"N","street":"Fullerton Ave","label":"2400 N"},"geometry":{"type":"LineString","coordinates":[[-87.72778,41.92462],[-87.63018,41.92462]]}},{"type":"Feature","properties":{"role":"mile","axis":"ns","num":3200,"dir":"N","street":"Belmont Ave","label":"3200 N"},"geometry":{"type":"LineString","coordinates":[[-87.8518,41.93916],[-87.63362,41.93916]]}},{"type":"Feature","properties":{"role":"mile","axis":"ns","num":4000,"dir":"N","street":"Irving Park Rd","label":"4000 N"},"geometry":{"type":"LineString","coordinates":[[-87.91477,41.95398],[-87.89289,41.95398]]}},{"type":"Feature","properties":{"role":"mile","axis":"ns","num":4000,"dir":"N","street":"Irving Park Rd","label":"4000 N"},"geometry":{"type":"LineString","coordinates":[[-87.84661,41.95398],[-87.83183,41.95398]]}},{"type":"Feature","properties":{"role":"mile","axis":"ns","num":4000,"dir":"N","street":"Irving Park Rd","label":"4000 N"},"geometry":{"type":"LineString","coordinates":[[-87.80667,41.95398],[-87.64079,41.95398]]}},{"type":"Feature","properties":{"role":"mile","axis":"ns","num":4800,"dir":"N","street":"Lawrence Ave","label":"4800 N"},"geometry":{"type":"LineString","coordinates":[[-87.93972,41.96829],[-87.8808,41.96829]]}},{"type":"Feature","properties":{"role":"mile","axis":"ns","num":4800,"dir":"N","street":"Lawrence Ave","label":"4800 N"},"geometry":{"type":"LineString","coordinates":[[-87.855,41.96829],[-87.84654,41.96829]]}},{"type":"Feature","properties":{"role":"mile","axis":"ns","num":4800,"dir":"N","street":"Lawrence Ave","label":"4800 N"},"geometry":{"type":"LineString","coordinates":[[-87.80716,41.96829],[-87.80331,41.96829]]}},{"type":"Feature","properties":{"role":"mile","axis":"ns","num":4800,"dir":"N","street":"Lawrence Ave","label":"4800 N"},"geometry":{"type":"LineString","coordinates":[[-87.78675,41.96829],[-87.76749,41.96829]]}},{"type":"Feature","properties":{"role":"mile","axis":"ns","num":4800,"dir":"N","street":"Lawrence Ave","label":"4800 N"},"geometry":{"type":"LineString","coordinates":[[-87.76749,41.96829],[-87.64324,41.96829]]}},{"type":"Feature","properties":{"role":"mile","axis":"ns","num":5600,"dir":"N","street":"Bryn Mawr Ave","label":"5600 N"},"geometry":{"type":"LineString","coordinates":[[-87.93976,41.98281],[-87.87581,41.98281]]}},{"type":"Feature","properties":{"role":"mile","axis":"ns","num":5600,"dir":"N","street":"Bryn Mawr Ave","label":"5600 N"},"geometry":{"type":"LineString","coordinates":[[-87.85597,41.98281],[-87.8336,41.98281]]}},{"type":"Feature","properties":{"role":"mile","axis":"ns","num":5600,"dir":"N","street":"Bryn Mawr Ave","label":"5600 N"},"geometry":{"type":"LineString","coordinates":[[-87.82813,41.98281],[-87.82528,41.98281]]}},{"type":"Feature","properties":{"role":"mile","axis":"ns","num":5600,"dir":"N","street":"Bryn Mawr Ave","label":"5600 N"},"geometry":{"type":"LineString","coordinates":[[-87.82357,41.98281],[-87.65073,41.98281]]}},{"type":"Feature","properties":{"role":"mile","axis":"ns","num":6400,"dir":"N","street":"Devon Ave","label":"6400 N"},"geometry":{"type":"LineString","coordinates":[[-87.93744,41.99735],[-87.88453,41.99735]]}},{"type":"Feature","properties":{"role":"mile","axis":"ns","num":6400,"dir":"N","street":"Devon Ave","label":"6400 N"},"geometry":{"type":"LineString","coordinates":[[-87.8214,41.99735],[-87.753,41.99735]]}},{"type":"Feature","properties":{"role":"mile","axis":"ns","num":6400,"dir":"N","street":"Devon Ave","label":"6400 N"},"geometry":{"type":"LineString","coordinates":[[-87.71171,41.99735],[-87.65472,41.99735]]}},{"type":"Feature","properties":{"role":"mile","axis":"ns","num":7200,"dir":"N","street":"Touhy Ave","label":"7200 N"},"geometry":{"type":"LineString","coordinates":[[-87.8201,42.01204],[-87.80664,42.01204]]}},{"type":"Feature","properties":{"role":"mile","axis":"ns","num":7200,"dir":"N","street":"Touhy Ave","label":"7200 N"},"geometry":{"type":"LineString","coordinates":[[-87.77929,42.01204],[-87.77704,42.01204]]}},{"type":"Feature","properties":{"role":"mile","axis":"ns","num":7200,"dir":"N","street":"Touhy Ave","label":"7200 N"},"geometry":{"type":"LineString","coordinates":[[-87.70918,42.01204],[-87.66102,42.01204]]}},{"type":"Feature","properties":{"role":"mile","axis":"ns","num":1200,"dir":"S","street":"Roosevelt Rd","label":"1200 S"},"geometry":{"type":"LineString","coordinates":[[-87.77417,41.86679],[-87.61267,41.86679]]}},{"type":"Feature","properties":{"role":"mile","axis":"ns","num":2200,"dir":"S","street":"Cermak Rd","label":"2200 S"},"geometry":{"type":"LineString","coordinates":[[-87.73953,41.85214],[-87.61008,41.85214]]}},{"type":"Feature","properties":{"role":"mile","axis":"ns","num":3100,"dir":"S","street":"31st St","label":"3100 S"},"geometry":{"type":"LineString","coordinates":[[-87.73897,41.83797],[-87.60616,41.83797]]}},{"type":"Feature","properties":{"role":"mile","axis":"ns","num":3900,"dir":"S","street":"Pershing Rd","label":"3900 S"},"geometry":{"type":"LineString","coordinates":[[-87.73852,41.82352],[-87.59759,41.82352]]}},{"type":"Feature","properties":{"role":"mile","axis":"ns","num":4700,"dir":"S","street":"47th St","label":"4700 S"},"geometry":{"type":"LineString","coordinates":[[-87.75296,41.80863],[-87.58608,41.80863]]}},{"type":"Feature","properties":{"role":"mile","axis":"ns","num":5500,"dir":"S","street":"55th St","label":"5500 S"},"geometry":{"type":"LineString","coordinates":[[-87.80158,41.79342],[-87.62852,41.79342]]}},{"type":"Feature","properties":{"role":"mile","axis":"ns","num":5500,"dir":"S","street":"55th St","label":"5500 S"},"geometry":{"type":"LineString","coordinates":[[-87.62852,41.79342],[-87.5795,41.79342]]}},{"type":"Feature","properties":{"role":"mile","axis":"ns","num":6300,"dir":"S","street":"63rd St","label":"6300 S"},"geometry":{"type":"LineString","coordinates":[[-87.80101,41.77925],[-87.57458,41.77925]]}},{"type":"Feature","properties":{"role":"mile","axis":"ns","num":7100,"dir":"S","street":"71st St","label":"7100 S"},"geometry":{"type":"LineString","coordinates":[[-87.74193,41.76565],[-87.56061,41.76565]]}},{"type":"Feature","properties":{"role":"mile","axis":"ns","num":7900,"dir":"S","street":"79th St","label":"7900 S"},"geometry":{"type":"LineString","coordinates":[[-87.7414,41.75036],[-87.53651,41.75036]]}},{"type":"Feature","properties":{"role":"mile","axis":"ns","num":8700,"dir":"S","street":"87th St","label":"8700 S"},"geometry":{"type":"LineString","coordinates":[[-87.74094,41.73632],[-87.52932,41.73632]]}},{"type":"Feature","properties":{"role":"mile","axis":"ns","num":9500,"dir":"S","street":"95th St","label":"9500 S"},"geometry":{"type":"LineString","coordinates":[[-87.68209,41.72168],[-87.52483,41.72168]]}},{"type":"Feature","properties":{"role":"mile","axis":"ns","num":10300,"dir":"S","street":"103rd St","label":"10300 S"},"geometry":{"type":"LineString","coordinates":[[-87.72095,41.70714],[-87.71115,41.70714]]}},{"type":"Feature","properties":{"role":"mile","axis":"ns","num":10300,"dir":"S","street":"103rd St","label":"10300 S"},"geometry":{"type":"LineString","coordinates":[[-87.69706,41.70714],[-87.63313,41.70714]]}},{"type":"Feature","properties":{"role":"mile","axis":"ns","num":10300,"dir":"S","street":"103rd St","label":"10300 S"},"geometry":{"type":"LineString","coordinates":[[-87.63313,41.70714],[-87.52455,41.70714]]}},{"type":"Feature","properties":{"role":"mile","axis":"ns","num":11100,"dir":"S","street":"111th St","label":"11100 S"},"geometry":{"type":"LineString","coordinates":[[-87.72038,41.69221],[-87.69578,41.69221]]}},{"type":"Feature","properties":{"role":"mile","axis":"ns","num":11100,"dir":"S","street":"111th St","label":"11100 S"},"geometry":{"type":"LineString","coordinates":[[-87.69204,41.69221],[-87.52465,41.69221]]}},{"type":"Feature","properties":{"role":"mile","axis":"ns","num":11900,"dir":"S","street":"119th St","label":"11900 S"},"geometry":{"type":"LineString","coordinates":[[-87.68604,41.67757],[-87.66137,41.67757]]}},{"type":"Feature","properties":{"role":"mile","axis":"ns","num":11900,"dir":"S","street":"119th St","label":"11900 S"},"geometry":{"type":"LineString","coordinates":[[-87.66136,41.67757],[-87.52479,41.67757]]}},{"type":"Feature","properties":{"role":"mile","axis":"ns","num":12700,"dir":"S","street":"127th St","label":"12700 S"},"geometry":{"type":"LineString","coordinates":[[-87.64142,41.6633],[-87.52495,41.6633]]}},{"type":"Feature","properties":{"role":"base","axis":"ew","num":0,"dir":"","street":"State St","label":"0"},"geometry":{"type":"LineString","coordinates":[[-87.62641,41.66153],[-87.62641,41.91137]]}},{"type":"Feature","properties":{"role":"base","axis":"ew","num":0,"dir":"","street":"State St","label":"0"},"geometry":{"type":"LineString","coordinates":[[-87.62641,41.91138],[-87.62641,41.91589]]}},{"type":"Feature","properties":{"role":"mile","axis":"ew","num":800,"dir":"W","street":"Halsted St","label":"800 W"},"geometry":{"type":"LineString","coordinates":[[-87.64518,41.65774],[-87.64518,41.66319]]}},{"type":"Feature","properties":{"role":"mile","axis":"ew","num":800,"dir":"W","street":"Halsted St","label":"800 W"},"geometry":{"type":"LineString","coordinates":[[-87.64518,41.67049],[-87.64518,41.68504]]}},{"type":"Feature","properties":{"role":"mile","axis":"ew","num":800,"dir":"W","street":"Halsted St","label":"800 W"},"geometry":{"type":"LineString","coordinates":[[-87.64518,41.68504],[-87.64518,41.7581]]}},{"type":"Feature","properties":{"role":"mile","axis":"ew","num":800,"dir":"W","street":"Halsted St","label":"800 W"},"geometry":{"type":"LineString","coordinates":[[-87.64518,41.7581],[-87.64518,41.89773]]}},{"type":"Feature","properties":{"role":"mile","axis":"ew","num":800,"dir":"W","street":"Halsted St","label":"800 W"},"geometry":{"type":"LineString","coordinates":[[-87.64518,41.89773],[-87.64518,41.97104]]}},{"type":"Feature","properties":{"role":"mile","axis":"ew","num":1600,"dir":"W","street":"Ashland Ave","label":"1600 W"},"geometry":{"type":"LineString","coordinates":[[-87.66633,41.67745],[-87.66633,42.02296]]}},{"type":"Feature","properties":{"role":"mile","axis":"ew","num":2400,"dir":"W","street":"Western Ave","label":"2400 W"},"geometry":{"type":"LineString","coordinates":[[-87.68555,41.67722],[-87.68555,41.71364]]}},{"type":"Feature","properties":{"role":"mile","axis":"ew","num":2400,"dir":"W","street":"Western Ave","label":"2400 W"},"geometry":{"type":"LineString","coordinates":[[-87.68555,41.73548],[-87.68555,42.0195]]}},{"type":"Feature","properties":{"role":"mile","axis":"ew","num":3200,"dir":"W","street":"Kedzie Ave","label":"3200 W"},"geometry":{"type":"LineString","coordinates":[[-87.70543,41.68058],[-87.70543,41.70614]]}},{"type":"Feature","properties":{"role":"mile","axis":"ew","num":3200,"dir":"W","street":"Kedzie Ave","label":"3200 W"},"geometry":{"type":"LineString","coordinates":[[-87.70543,41.73514],[-87.70543,41.82885]]}},{"type":"Feature","properties":{"role":"mile","axis":"ew","num":3200,"dir":"W","street":"Kedzie Ave","label":"3200 W"},"geometry":{"type":"LineString","coordinates":[[-87.70543,41.82885],[-87.70543,41.94664]]}},{"type":"Feature","properties":{"role":"mile","axis":"ew","num":3200,"dir":"W","street":"Kedzie Ave","label":"3200 W"},"geometry":{"type":"LineString","coordinates":[[-87.70543,41.94664],[-87.70543,41.96121]]}},{"type":"Feature","properties":{"role":"mile","axis":"ew","num":3200,"dir":"W","street":"Kedzie Ave","label":"3200 W"},"geometry":{"type":"LineString","coordinates":[[-87.70543,41.96121],[-87.70543,42.01921]]}},{"type":"Feature","properties":{"role":"mile","axis":"ew","num":4000,"dir":"W","street":"Pulaski Rd","label":"4000 W"},"geometry":{"type":"LineString","coordinates":[[-87.72421,41.68399],[-87.72421,41.6912]]}},{"type":"Feature","properties":{"role":"mile","axis":"ew","num":4000,"dir":"W","street":"Pulaski Rd","label":"4000 W"},"geometry":{"type":"LineString","coordinates":[[-87.72421,41.73481],[-87.72421,41.91772]]}},{"type":"Feature","properties":{"role":"mile","axis":"ew","num":4000,"dir":"W","street":"Pulaski Rd","label":"4000 W"},"geometry":{"type":"LineString","coordinates":[[-87.72421,41.91772],[-87.72421,41.99726]]}},{"type":"Feature","properties":{"role":"mile","axis":"ew","num":4800,"dir":"W","street":"Cicero Ave","label":"4800 W"},"geometry":{"type":"LineString","coordinates":[[-87.74492,41.77471],[-87.74492,41.81588]]}},{"type":"Feature","properties":{"role":"mile","axis":"ew","num":4800,"dir":"W","street":"Cicero Ave","label":"4800 W"},"geometry":{"type":"LineString","coordinates":[[-87.74492,41.86589],[-87.74492,41.99727]]}},{"type":"Feature","properties":{"role":"mile","axis":"ew","num":5600,"dir":"W","street":"Central Ave","label":"5600 W"},"geometry":{"type":"LineString","coordinates":[[-87.76566,41.7744],[-87.76566,41.80002]]}},{"type":"Feature","properties":{"role":"mile","axis":"ew","num":5600,"dir":"W","street":"Central Ave","label":"5600 W"},"geometry":{"type":"LineString","coordinates":[[-87.76566,41.86558],[-87.76566,42.00352]]}},{"type":"Feature","properties":{"role":"mile","axis":"ew","num":5600,"dir":"W","street":"Central Ave","label":"5600 W"},"geometry":{"type":"LineString","coordinates":[[-87.76566,42.00383],[-87.76566,42.0083]]}},{"type":"Feature","properties":{"role":"mile","axis":"ew","num":6400,"dir":"W","street":"Narragansett Ave","label":"6400 W"},"geometry":{"type":"LineString","coordinates":[[-87.78558,41.77402],[-87.78558,41.79964]]}},{"type":"Feature","properties":{"role":"mile","axis":"ew","num":6400,"dir":"W","street":"Narragansett Ave","label":"6400 W"},"geometry":{"type":"LineString","coordinates":[[-87.78558,41.90914],[-87.78558,41.96844]]}},{"type":"Feature","properties":{"role":"mile","axis":"ew","num":6400,"dir":"W","street":"Narragansett Ave","label":"6400 W"},"geometry":{"type":"LineString","coordinates":[[-87.78558,41.96844],[-87.78558,42.00281]]}},{"type":"Feature","properties":{"role":"mile","axis":"ew","num":6400,"dir":"W","street":"Narragansett Ave","label":"6400 W"},"geometry":{"type":"LineString","coordinates":[[-87.78558,42.00833],[-87.78558,42.012]]}},{"type":"Feature","properties":{"role":"mile","axis":"ew","num":7200,"dir":"W","street":"Harlem Ave","label":"7200 W"},"geometry":{"type":"LineString","coordinates":[[-87.80661,41.9342],[-87.80661,41.95401]]}},{"type":"Feature","properties":{"role":"mile","axis":"ew","num":7200,"dir":"W","street":"Harlem Ave","label":"7200 W"},"geometry":{"type":"LineString","coordinates":[[-87.80661,41.96827],[-87.80661,42.00086]]}},{"type":"Feature","properties":{"role":"mile","axis":"ew","num":7200,"dir":"W","street":"Harlem Ave","label":"7200 W"},"geometry":{"type":"LineString","coordinates":[[-87.80661,42.01443],[-87.80661,42.01896]]}},{"type":"Feature","properties":{"role":"mile","axis":"ew","num":800,"dir":"E","street":"Cottage Grove Ave","label":"800 E"},"geometry":{"type":"LineString","coordinates":[[-87.60596,41.64461],[-87.60596,41.8364]]}},{"type":"Feature","properties":{"role":"mile","axis":"ew","num":800,"dir":"E","street":"Cottage Grove Ave","label":"800 E"},"geometry":{"type":"LineString","coordinates":[[-87.60596,41.8932],[-87.60596,41.8963]]}},{"type":"Feature","properties":{"role":"mile","axis":"ew","num":1600,"dir":"E","street":"Stony Island Ave","label":"1600 E"},"geometry":{"type":"LineString","coordinates":[[-87.58617,41.6447],[-87.58617,41.80897]]}},{"type":"Feature","properties":{"role":"mile","axis":"ew","num":2400,"dir":"E","street":"Yates Blvd","label":"2400 E"},"geometry":{"type":"LineString","coordinates":[[-87.56624,41.64467],[-87.56624,41.77342]]}}]}